"page_url","location_name","street_address","city","state","zip","country_code","store_number","phone","location_type","latitude","longitude","locator_domain","hours_of_operation","raw_address","record_id"
"https://www.dillards.com/stores/alabama/auburn-mall-auburn/0417","Dillard's Auburn Mall in Auburn, Alabama","1627 Opelika Rd #16","Auburn","AL","36830","<MISSING>","0417","(334)821-3900","DepartmentStore","32.62621","-85.44593","dillards.com","Friday 11:00 AM - 8:00 PM, Saturday 11:00 AM - 8:00 PM, Sunday 12:00 PM - 6:00 PM, Monday 11:00 AM - 8:00 PM, Tuesday 11:00 AM - 8:00 PM, Wednesday 11:00 AM - 8:00 PM, Thursday 11:00 AM - 8:00 PM","<MISSING>","location_name:street_address"
"https://www.dillards.com/stores/alabama/wiregrass-commons-mall-dothan/0274","Dillard's Wiregrass Commons Mall in Dothan, Alabama","900 Commons Dr #100","Dothan","AL","36303","<MISSING>","0274","(334)794-3300","DepartmentStore","31.25213","-85.42456","dillards.com","Friday 11:00 AM - 8:00 PM, Saturday 11:00 AM - 8:00 PM, Sunday 12:00 PM - 6:00 PM, Monday 11:00 AM - 8:00 PM, Tuesday 11:00 AM - 8:00 PM, Wednesday 11:00 AM - 8:00 PM, Thursday 11:00 AM - 8:00 PM","<MISSING>","location_name:street_address"
"https://www.dillards.com/stores/alabama/florence-mall-florence/0453","Dillard's Florence Mall in Florence, Alabama","301 Cox Creek Pkwy Ste #1100","Florence","AL","35630","<MISSING>","0453","(256)766-8200","DepartmentStore","34.83615","-87.63636","dillards.com","Friday 11:00 AM - 8:00 PM, Saturday 11:00 AM - 8:00 PM, Sunday 12:00 PM - 6:00 PM, Monday 11:00 AM - 8:00 PM, Tuesday 11:00 AM - 8:00 PM, Wednesday 11:00 AM - 8:00 PM, Thursday 11:00 AM - 8:00 PM","<MISSING>","location_name:street_address"
"https://www.dillards.com/stores/alabama/parkway-place-huntsville/0460","Dillard's Parkway Place in Huntsville, Alabama","2801 Memorial Pkwy SW","Huntsville","AL","35801","<MISSING>","0460","(256)551-0179","DepartmentStore","34.70561","-86.58635","dillards.com","Friday 11:00 AM - 8:00 PM, Saturday 11:00 AM - 8:00 PM, Sunday 12:00 PM - 6:00 PM, Monday 11:00 AM - 8:00 PM, Tuesday 11:00 AM - 8:00 PM, Wednesday 11:00 AM - 8:00 PM, Thursday 11:00 AM - 8:00 PM","<MISSING>","location_name:street_address"
"https://www.dillards.com/stores/alabama/shoppes-at-bel-air-mobile/0241","Dillard's Shoppes At Bel Air in Mobile, Alabama","3300 Joe Treadwell Dr","Mobile","AL","36606","<MISSING>","0241","(251)471-1551","DepartmentStore","30.67458","-88.12386","dillards.com","Friday 11:00 AM - 8:00 PM, Saturday 11:00 AM - 8:00 PM, Sunday 12:00 PM - 6:00 PM, Monday 11:00 AM - 8:00 PM, Tuesday 11:00 AM - 8:00 PM, Wednesday 11:00 AM - 8:00 PM, Thursday 11:00 AM - 8:00 PM","<MISSING>","location_name:street_address"
"https://www.dillards.com/stores/alabama/eastdale-mall-montgomery/0514","Dillard's Eastdale Mall in Montgomery, Alabama","3000 Eastdale Mall","Montgomery","AL","36117","<MISSING>","0514","(334)277-7200","DepartmentStore","32.38441","-86.20426","dillards.com","Friday 12:00 PM - 7:00 PM, Saturday 12:00 PM - 7:00 PM, Sunday 12:00 PM - 6:00 PM, Tuesday 12:00 PM - 7:00 PM, Wednesday 12:00 PM - 7:00 PM, Thursday 12:00 PM - 7:00 PM","<MISSING>","location_name:street_address"
"https://www.dillards.com/stores/alabama/the-shoppes-at-eastchase-montgomery/0418","Dillard's The Shoppes At Eastchase in Montgomery, Alabama","7310 Eastchase Pkwy","Montgomery","AL","36117","<MISSING>","0418","(334)244-6442","DepartmentStore","32.35803","-86.16498","dillards.com","Friday 11:00 AM - 8:00 PM, Saturday 11:00 AM - 8:00 PM, Sunday 12:00 PM - 6:00 PM, Monday 11:00 AM - 8:00 PM, Tuesday 11:00 AM - 8:00 PM, Wednesday 11:00 AM - 8:00 PM, Thursday 11:00 AM - 8:00 PM","<MISSING>","location_name:street_address"
"https://www.dillards.com/stores/alabama/quintard-mall-oxford/0416","Dillard's Quintard Mall in Oxford, Alabama","700 S Quintard Ave","Oxford","AL","36203","<MISSING>","0416","(256)835-2819","DepartmentStore","33.6138","-85.82226","dillards.com","Friday 11:00 AM - 8:00 PM, Saturday 11:00 AM - 8:00 PM, Sunday 12:00 PM - 6:00 PM, Monday 11:00 AM - 8:00 PM, Tuesday 11:00 AM - 8:00 PM, Wednesday 11:00 AM - 8:00 PM, Thursday 11:00 AM - 8:00 PM","<MISSING>","location_name:street_address"
"https://www.dillards.com/stores/alabama/eastern-shore-centre-spanish-fort/0239","Dillard's Eastern Shore Centre in Spanish Fort, Alabama","10101 Eastern Shore Blvd","Spanish Fort","AL","36527","<MISSING>","0239","(251)621-2257","DepartmentStore","30.6669","-87.85045","dillards.com","Friday 11:00 AM - 8:00 PM, Saturday 11:00 AM - 8:00 PM, Sunday 12:00 PM - 6:00 PM, Monday 11:00 AM - 8:00 PM, Tuesday 11:00 AM - 8:00 PM, Wednesday 11:00 AM - 8:00 PM, Thursday 11:00 AM - 8:00 PM","<MISSING>","location_name:street_address"
"https://www.dillards.com/stores/arizona/promenade-at-casa-grande-casa-grande/0505","Dillard's Promenade At Casa Grande in Casa Grande, Arizona","1117 N Promenade Pkwy","Casa Grande","AZ","85194","<MISSING>","0505","(520)421-1141","DepartmentStore","32.8846","-111.68565","dillards.com","Friday 12:00 PM - 7:00 PM, Saturday 12:00 PM - 7:00 PM, Sunday 12:00 PM - 6:00 PM, Tuesday 12:00 PM - 7:00 PM, Wednesday 12:00 PM - 7:00 PM, Thursday 12:00 PM - 7:00 PM","<MISSING>","location_name:street_address"
"https://www.dillards.com/stores/arizona/chandler-fashion-center-chandler/0908","Dillard's Chandler Fashion Center in Chandler, Arizona","3101 W Chandler Blvd","Chandler","AZ","85226","<MISSING>","0908","(480)735-2060","DepartmentStore","33.30251","-111.89655","dillards.com","Friday 11:00 AM - 8:00 PM, Saturday 11:00 AM - 8:00 PM, Sunday 12:00 PM - 6:00 PM, Monday 11:00 AM - 8:00 PM, Tuesday 11:00 AM - 8:00 PM, Wednesday 11:00 AM - 8:00 PM, Thursday 11:00 AM - 8:00 PM","<MISSING>","location_name:street_address"
"https://www.dillards.com/stores/arizona/flagstaff-mall-flagstaff/0916","Dillard's Flagstaff Mall in Flagstaff, Arizona","4700 US Highway 89 North","Flagstaff","AZ","86004","<MISSING>","0916","(928)526-5541","DepartmentStore","35.22275","-111.58","dillards.com","Friday 11:00 AM - 8:00 PM, Saturday 11:00 AM - 8:00 PM, Sunday 12:00 PM - 6:00 PM, Monday 11:00 AM - 8:00 PM, Tuesday 11:00 AM - 8:00 PM, Wednesday 11:00 AM - 8:00 PM, Thursday 11:00 AM - 8:00 PM","<MISSING>","location_name:street_address"
"https://www.dillards.com/stores/arizona/santan-village-gilbert/0910","Dillard's Santan Village in Gilbert, Arizona","2151 S Santan Village Pkwy","Gilbert","AZ","85296","<MISSING>","0910","(480)726-1512","DepartmentStore","33.3068","-111.7399","dillards.com","Friday 11:00 AM - 8:00 PM, Saturday 11:00 AM - 8:00 PM, Sunday 12:00 PM - 6:00 PM, Monday 11:00 AM - 8:00 PM, Tuesday 11:00 AM - 8:00 PM, Wednesday 11:00 AM - 8:00 PM, Thursday 11:00 AM - 8:00 PM","<MISSING>","location_name:street_address"
"https://www.dillards.com/stores/arizona/arrowhead-towne-center-glendale/0907","Dillard's Arrowhead Towne Center in Glendale, Arizona","7800 W Arrowhead Towne Center","Glendale","AZ","85308","<MISSING>","0907","(623)979-1128","DepartmentStore","33.6422","-112.2288","dillards.com","Friday 11:00 AM - 8:00 PM, Saturday 11:00 AM - 8:00 PM, Sunday 12:00 PM - 6:00 PM, Monday 11:00 AM - 8:00 PM, Tuesday 11:00 AM - 8:00 PM, Wednesday 11:00 AM - 8:00 PM, Thursday 11:00 AM - 8:00 PM","<MISSING>","location_name:street_address"
"https://www.dillards.com/stores/arizona/the-shops-at-lake-havasu-lake-havasu-city/0912","Dillard's The Shops At Lake Havasu in Lake Havasu City, Arizona","5501 AZ-95","Lake Havasu City","AZ","86404","<MISSING>","0912","(928)764-1200","DepartmentStore","34.54345","-114.35385","dillards.com","Friday 11:00 AM - 8:00 PM, Saturday 11:00 AM - 8:00 PM, Sunday 12:00 PM - 6:00 PM, Monday 11:00 AM - 8:00 PM, Tuesday 11:00 AM - 8:00 PM, Wednesday 11:00 AM - 8:00 PM, Thursday 11:00 AM - 8:00 PM","<MISSING>","location_name:street_address"
"https://www.dillards.com/stores/arizona/superstition-springs-center-mesa/0909","Dillard's Superstition Springs Center in Mesa, Arizona","6545 E Southern Ave","Mesa","AZ","85206","<MISSING>","0909","(480)832-1247","DepartmentStore","33.38995","-111.6876","dillards.com","Friday 11:00 AM - 8:00 PM, Saturday 11:00 AM - 8:00 PM, Sunday 12:00 PM - 6:00 PM, Monday 11:00 AM - 8:00 PM, Tuesday 11:00 AM - 8:00 PM, Wednesday 11:00 AM - 8:00 PM, Thursday 11:00 AM - 8:00 PM","<MISSING>","location_name:street_address"
"https://www.dillards.com/stores/arizona/metrocenter-phoenix/0502","Dillard's Metrocenter in Phoenix, Arizona","10002 N Metro Pkwy E","Phoenix","AZ","85051","<MISSING>","0502","(602)861-2241","DepartmentStore","33.57635","-112.1204","dillards.com","Friday 12:00 PM - 7:00 PM, Saturday 12:00 PM - 7:00 PM, Sunday 12:00 PM - 6:00 PM, Tuesday 12:00 PM - 7:00 PM, Wednesday 12:00 PM - 7:00 PM, Thursday 12:00 PM - 7:00 PM","<MISSING>","location_name:street_address"
"https://www.dillards.com/stores/arizona/desert-sky-mall-phoenix/0501","Dillard's Desert Sky Mall in Phoenix, Arizona","7621 W Thomas Rd","Phoenix","AZ","85033","<MISSING>","0501","(623)849-0100","DepartmentStore","33.47796","-112.2244","dillards.com","Friday 12:00 PM - 7:00 PM, Saturday 12:00 PM - 7:00 PM, Sunday 12:00 PM - 6:00 PM, Tuesday 12:00 PM - 7:00 PM, Wednesday 12:00 PM - 7:00 PM, Thursday 12:00 PM - 7:00 PM","<MISSING>","location_name:street_address"
"https://www.dillards.com/stores/arizona/prescott-gateway-mall-prescott/0911","Dillard's Prescott Gateway Mall in Prescott, Arizona","3100 Gateway Blvd","Prescott","AZ","86303","<MISSING>","0911","(928)717-1270","DepartmentStore","34.54973","-112.4106","dillards.com","Friday 11:00 AM - 8:00 PM, Saturday 11:00 AM - 8:00 PM, Sunday 12:00 PM - 6:00 PM, Monday 11:00 AM - 8:00 PM, Tuesday 11:00 AM - 8:00 PM, Wednesday 11:00 AM - 8:00 PM, Thursday 11:00 AM - 8:00 PM","<MISSING>","location_name:street_address"
"https://www.dillards.com/stores/arizona/scottsdale-fashion-square-scottsdale/0902","Dillard's Scottsdale Fashion Square in Scottsdale, Arizona","6900 E Camelback Rd","Scottsdale","AZ","85251","<MISSING>","0902","(480)949-5869","DepartmentStore","33.50366","-111.9336","dillards.com","Friday 11:00 AM - 8:00 PM, Saturday 11:00 AM - 8:00 PM, Sunday 12:00 PM - 6:00 PM, Monday 11:00 AM - 8:00 PM, Tuesday 11:00 AM - 8:00 PM, Wednesday 11:00 AM - 8:00 PM, Thursday 11:00 AM - 8:00 PM","<MISSING>","location_name:street_address"
"https://www.dillards.com/stores/arizona/the-mall-at-sierra-vista-sierra-vista/0919","Dillard's The Mall At Sierra Vista in Sierra Vista, Arizona","3800 El Mercado Loop","Sierra Vista","AZ","85635","<MISSING>","0919","(520)515-0151","DepartmentStore","31.53113","-110.2598","dillards.com","Friday 11:00 AM - 8:00 PM, Saturday 11:00 AM - 8:00 PM, Sunday 12:00 PM - 6:00 PM, Monday 11:00 AM - 8:00 PM, Tuesday 11:00 AM - 8:00 PM, Wednesday 11:00 AM - 8:00 PM, Thursday 11:00 AM - 8:00 PM","<MISSING>","location_name:street_address"
"https://www.dillards.com/stores/arizona/park-place-tucson/0914","Dillard's Park Place in Tucson, Arizona","5890 E Broadway Blvd","Tucson","AZ","85711","<MISSING>","0914","(520)747-4700","DepartmentStore","32.21793","-110.8646","dillards.com","Friday 11:00 AM - 8:00 PM, Saturday 11:00 AM - 8:00 PM, Sunday 12:00 PM - 6:00 PM, Monday 11:00 AM - 8:00 PM, Tuesday 11:00 AM - 8:00 PM, Wednesday 11:00 AM - 8:00 PM, Thursday 11:00 AM - 8:00 PM","<MISSING>","location_name:street_address"
"https://www.dillards.com/stores/arizona/tucson-mall-tucson/0915","Dillard's Tucson Mall in Tucson, Arizona","4550 N Oracle Rd","Tucson","AZ","85705","<MISSING>","0915","(520)293-4550","DepartmentStore","32.29011","-110.97548","dillards.com","Friday 11:00 AM - 8:00 PM, Saturday 11:00 AM - 8:00 PM, Sunday 12:00 PM - 6:00 PM, Monday 11:00 AM - 8:00 PM, Tuesday 11:00 AM - 8:00 PM, Wednesday 11:00 AM - 8:00 PM, Thursday 11:00 AM - 8:00 PM","<MISSING>","location_name:street_address"
"https://www.dillards.com/stores/arizona/yuma-palms-regional-center-yuma/0918","Dillard's Yuma Palms Regional Center in Yuma, Arizona","1461 Yuma Palms Pkwy","Yuma","AZ","85365","<MISSING>","0918","(928)329-4722","DepartmentStore","32.70065","-114.60166","dillards.com","Friday 11:00 AM - 8:00 PM, Saturday 11:00 AM - 8:00 PM, Sunday 12:00 PM - 6:00 PM, Monday 11:00 AM - 8:00 PM, Tuesday 11:00 AM - 8:00 PM, Wednesday 11:00 AM - 8:00 PM, Thursday 11:00 AM - 8:00 PM","<MISSING>","location_name:street_address"
"https://www.dillards.com/stores/arkansas/northwest-arkansas-mall-fayetteville/0403","Dillard's Northwest Arkansas Mall in Fayetteville, Arkansas","4201 N Shiloh Dr","Fayetteville","AR","72703","<MISSING>","0403","(479)521-7171","DepartmentStore","36.12895","-94.14671","dillards.com","Friday 11:00 AM - 8:00 PM, Saturday 11:00 AM - 8:00 PM, Sunday 12:00 PM - 6:00 PM, Monday 11:00 AM - 8:00 PM, Tuesday 11:00 AM - 8:00 PM, Wednesday 11:00 AM - 8:00 PM, Thursday 11:00 AM - 8:00 PM","<MISSING>","location_name:street_address"
"https://www.dillards.com/stores/arkansas/central-mall-fort-smith/0413","Dillard's Central Mall in Fort Smith, Arkansas","5111 Rogers Ave","Fort Smith","AR","72903","<MISSING>","0413","(479)484-5700","DepartmentStore","35.36821","-94.37411","dillards.com","Friday 11:00 AM - 8:00 PM, Saturday 11:00 AM - 8:00 PM, Sunday 12:00 PM - 6:00 PM, Monday 11:00 AM - 8:00 PM, Tuesday 11:00 AM - 8:00 PM, Wednesday 11:00 AM - 8:00 PM, Thursday 11:00 AM - 8:00 PM","<MISSING>","location_name:street_address"
"https://www.dillards.com/stores/arkansas/hot-springs-mall-hot-springs/0402","Dillard's Hot Springs Mall in Hot Springs, Arkansas","4501 Central Ave #102","Hot Springs","AR","71913","<MISSING>","0402","(501)525-4501","DepartmentStore","34.44921","-93.08001","dillards.com","Friday 11:00 AM - 8:00 PM, Saturday 11:00 AM - 8:00 PM, Sunday 12:00 PM - 6:00 PM, Monday 11:00 AM - 8:00 PM, Tuesday 11:00 AM - 8:00 PM, Wednesday 11:00 AM - 8:00 PM, Thursday 11:00 AM - 8:00 PM","<MISSING>","location_name:street_address"
"https://www.dillards.com/stores/arkansas/the-mall-at-turtle-creek-jonesboro/0406","Dillard's The Mall At Turtle Creek in Jonesboro, Arkansas","3000 E Highland Dr","Jonesboro","AR","72401","<MISSING>","0406","(870)932-6300","DepartmentStore","35.82268","-90.66133","dillards.com","Friday 11:00 AM - 8:00 PM, Saturday 11:00 AM - 8:00 PM, Sunday 12:00 PM - 6:00 PM, Monday 11:00 AM - 8:00 PM, Tuesday 11:00 AM - 8:00 PM, Wednesday 11:00 AM - 8:00 PM, Thursday 11:00 AM - 8:00 PM","<MISSING>","location_name:street_address"
"https://www.dillards.com/stores/arkansas/park-plaza-center-little-rock/0405","Dillard's Park Plaza Center in Little Rock, Arkansas","6000 W Markham St","Little Rock","AR","72205","<MISSING>","0405","(501)661-0053","DepartmentStore","34.753","-92.34208","dillards.com","Friday 11:00 AM - 8:00 PM, Saturday 11:00 AM - 8:00 PM, Sunday 12:00 PM - 6:00 PM, Monday 11:00 AM - 8:00 PM, Tuesday 11:00 AM - 8:00 PM, Wednesday 11:00 AM - 8:00 PM, Thursday 11:00 AM - 8:00 PM","<MISSING>","location_name:street_address"
"https://www.dillards.com/stores/arkansas/mccain-mall-north-little-rock/0407","Dillard's Mccain Mall in North Little Rock, Arkansas","3929 McCain Blvd","North Little Rock","AR","72116","<MISSING>","0407","(501)771-4100","DepartmentStore","34.79146","-92.22578","dillards.com","Friday 11:00 AM - 8:00 PM, Saturday 11:00 AM - 8:00 PM, Sunday 12:00 PM - 6:00 PM, Monday 11:00 AM - 8:00 PM, Tuesday 11:00 AM - 8:00 PM, Wednesday 11:00 AM - 8:00 PM, Thursday 11:00 AM - 8:00 PM","<MISSING>","location_name:street_address"
"https://www.dillards.com/stores/arkansas/the-pines-mall-pine-bluff/0529","Dillard's The Pines Mall in Pine Bluff, Arkansas","2901 Pines Mall Dr","Pine Bluff","AR","71601","<MISSING>","0529","(870)535-0433","DepartmentStore","34.2104","-91.97001","dillards.com","Friday 12:00 PM - 7:00 PM, Saturday 12:00 PM - 7:00 PM, Sunday 12:00 PM - 6:00 PM, Tuesday 12:00 PM - 7:00 PM, Wednesday 12:00 PM - 7:00 PM, Thursday 12:00 PM - 7:00 PM","<MISSING>","location_name:street_address"
"https://www.dillards.com/stores/arkansas/pinnacle-hills-promenade-rogers/0408","Dillard's Pinnacle Hills Promenade in Rogers, Arkansas","2101 S Promenade Blvd","Rogers","AR","72758","<MISSING>","0408","(479)936-7984","DepartmentStore","36.30711","-94.17776","dillards.com","Friday 11:00 AM - 8:00 PM, Saturday 11:00 AM - 8:00 PM, Sunday 12:00 PM - 6:00 PM, Monday 11:00 AM - 8:00 PM, Tuesday 11:00 AM - 8:00 PM, Wednesday 11:00 AM - 8:00 PM, Thursday 11:00 AM - 8:00 PM","<MISSING>","location_name:street_address"
"https://www.dillards.com/stores/california/imperial-valley-mall-el-centro/0962","Dillard's Imperial Valley Mall in El Centro, California","3451 Dogwood Rd","El Centro","CA","92243","<MISSING>","0962","(760)370-0190","DepartmentStore","32.76498","-115.5312","dillards.com","Friday 11:00 AM - 8:00 PM, Saturday 11:00 AM - 8:00 PM, Sunday 12:00 PM - 6:00 PM, Monday 11:00 AM - 8:00 PM, Tuesday 11:00 AM - 8:00 PM, Wednesday 11:00 AM - 8:00 PM, Thursday 11:00 AM - 8:00 PM","<MISSING>","location_name:street_address"
"https://www.dillards.com/stores/california/antelope-valley-mall-palmdale/0961","Dillard's Antelope Valley Mall in Palmdale, California","1255 Rancho Vista Blvd","Palmdale","CA","93551","<MISSING>","0961","(661)267-0670","DepartmentStore","34.60625","-118.15298","dillards.com","Friday 11:00 AM - 8:00 PM, Saturday 11:00 AM - 8:00 PM, Sunday 12:00 PM - 6:00 PM, Monday 11:00 AM - 8:00 PM, Tuesday 11:00 AM - 8:00 PM, Wednesday 11:00 AM - 8:00 PM, Thursday 11:00 AM - 8:00 PM","<MISSING>","location_name:street_address"
"https://www.dillards.com/stores/california/weberstown-mall-stockton/0960","Dillard's Weberstown Mall in Stockton, California","4950 Pacific Ave","Stockton","CA","95207","<MISSING>","0960","(209)477-1230","DepartmentStore","37.99291","-121.31086","dillards.com","Friday 11:00 AM - 8:00 PM, Saturday 11:00 AM - 8:00 PM, Sunday 12:00 PM - 6:00 PM, Monday 11:00 AM - 8:00 PM, Tuesday 11:00 AM - 8:00 PM, Wednesday 11:00 AM - 8:00 PM, Thursday 11:00 AM - 8:00 PM","<MISSING>","location_name:street_address"
"https://www.dillards.com/stores/colorado/town-center-at-aurora-aurora/0982","Dillard's Town Center At Aurora in Aurora, Colorado","14200 E Alameda Ave","Aurora","CO","80012","<MISSING>","0982","(303)360-5900","DepartmentStore","39.70033","-104.8305","dillards.com","Friday 11:00 AM - 8:00 PM, Saturday 11:00 AM - 8:00 PM, Sunday 12:00 PM - 6:00 PM, Monday 11:00 AM - 8:00 PM, Tuesday 11:00 AM - 8:00 PM, Wednesday 11:00 AM - 8:00 PM, Thursday 11:00 AM - 8:00 PM","<MISSING>","location_name:street_address"
"https://www.dillards.com/stores/colorado/flatiron-crossing-broomfield/0987","Dillard's Flatiron Crossing in Broomfield, Colorado","41 W Flatiron Crossing Dr","Broomfield","CO","80021","<MISSING>","0987","(303)464-3900","DepartmentStore","39.93246","-105.131","dillards.com","Friday 11:00 AM - 8:00 PM, Saturday 11:00 AM - 8:00 PM, Sunday 12:00 PM - 6:00 PM, Monday 11:00 AM - 8:00 PM, Tuesday 11:00 AM - 8:00 PM, Wednesday 11:00 AM - 8:00 PM, Thursday 11:00 AM - 8:00 PM","<MISSING>","location_name:street_address"
"https://www.dillards.com/stores/colorado/the-citadel-mall-colorado-springs/0504","Dillard's The Citadel Mall in Colorado Springs, Colorado","760 Citadel Dr E","Colorado Springs","CO","80909","<MISSING>","0504","(719)550-1159","DepartmentStore","38.84326","-104.7601","dillards.com","Friday 12:00 PM - 7:00 PM, Saturday 12:00 PM - 7:00 PM, Sunday 12:00 PM - 6:00 PM, Tuesday 12:00 PM - 7:00 PM, Wednesday 12:00 PM - 7:00 PM, Thursday 12:00 PM - 7:00 PM","<MISSING>","location_name:street_address"
"https://www.dillards.com/stores/colorado/chapel-hills-mall-colorado-springs/0994","Dillard's Chapel Hills Mall in Colorado Springs, Colorado","1790 Briargate Blvd","Colorado Springs","CO","80920","<MISSING>","0994","(719)532-1400","DepartmentStore","38.9492","-104.79401","dillards.com","Friday 11:00 AM - 8:00 PM, Saturday 11:00 AM - 8:00 PM, Sunday 12:00 PM - 6:00 PM, Monday 11:00 AM - 8:00 PM, Tuesday 11:00 AM - 8:00 PM, Wednesday 11:00 AM - 8:00 PM, Thursday 11:00 AM - 8:00 PM","<MISSING>","location_name:street_address"
"https://www.dillards.com/stores/colorado/mesa-mall-grand-junction/0995","Dillard's Mesa Mall in Grand Junction, Colorado","2424 Highway 6 And 50","Grand Junction","CO","81505","<MISSING>","0995","(970)208-0604","DepartmentStore","39.1535","-108.00433","dillards.com","Friday 11:00 AM - 8:00 PM, Saturday 11:00 AM - 8:00 PM, Sunday 12:00 PM - 6:00 PM, Monday 11:00 AM - 8:00 PM, Tuesday 11:00 AM - 8:00 PM, Wednesday 11:00 AM - 8:00 PM, Thursday 11:00 AM - 8:00 PM","<MISSING>","location_name:street_address"
"https://www.dillards.com/stores/colorado/southwest-plaza-littleton/0984","Dillard's Southwest Plaza in Littleton, Colorado","8501 W Bowles Ave Suite 2d657","Littleton","CO","80123","<MISSING>","0984","(303)979-6111","DepartmentStore","39.60946","-105.09751","dillards.com","Friday 11:00 AM - 8:00 PM, Saturday 11:00 AM - 8:00 PM, Sunday 12:00 PM - 6:00 PM, Monday 11:00 AM - 8:00 PM, Tuesday 11:00 AM - 8:00 PM, Wednesday 11:00 AM - 8:00 PM, Thursday 11:00 AM - 8:00 PM","<MISSING>","location_name:street_address"
"https://www.dillards.com/stores/colorado/park-meadows-lone-tree/0981","Dillard's Park Meadows in Lone Tree, Colorado","8415 Park Meadows Center Dr","Lone Tree","CO","80124","<MISSING>","0981","(303)790-0100","DepartmentStore","39.56411","-104.8787","dillards.com","Friday 11:00 AM - 8:00 PM, Saturday 11:00 AM - 8:00 PM, Sunday 12:00 PM - 6:00 PM, Monday 11:00 AM - 8:00 PM, Tuesday 11:00 AM - 8:00 PM, Wednesday 11:00 AM - 8:00 PM, Thursday 11:00 AM - 8:00 PM","<MISSING>","location_name:street_address"
"https://www.dillards.com/stores/colorado/pueblo-mall-pueblo/0992","Dillard's Pueblo Mall in Pueblo, Colorado","3601 Dillon Dr","Pueblo","CO","81008","<MISSING>","0992","(719)545-9665","DepartmentStore","38.30425","-104.61528","dillards.com","Friday 11:00 AM - 8:00 PM, Saturday 11:00 AM - 8:00 PM, Sunday 12:00 PM - 6:00 PM, Monday 11:00 AM - 8:00 PM, Tuesday 11:00 AM - 8:00 PM, Wednesday 11:00 AM - 8:00 PM, Thursday 11:00 AM - 8:00 PM","<MISSING>","location_name:street_address"
"https://www.dillards.com/stores/florida/altamonte-mall-altamonte-springs/0226","Dillard's Altamonte Mall in Altamonte Springs, Florida","451 E Altamonte Dr #1101","Altamonte Springs","FL","32701","<MISSING>","0226","(407)830-1211","DepartmentStore","28.66635","-81.37891","dillards.com","Friday 11:00 AM - 8:00 PM, Saturday 11:00 AM - 8:00 PM, Sunday 12:00 PM - 6:00 PM, Monday 11:00 AM - 8:00 PM, Tuesday 11:00 AM - 8:00 PM, Wednesday 11:00 AM - 8:00 PM, Thursday 11:00 AM - 8:00 PM","<MISSING>","location_name:street_address"
"https://www.dillards.com/stores/florida/boyton-beach-mall-boynton-beach/0513","Dillard's Boyton Beach Mall in Boynton Beach, Florida","801 N Congress Ave","Boynton Beach","FL","33426","<MISSING>","0513","(561)732-4285","DepartmentStore","26.53401","-80.0968","dillards.com","Friday 12:00 PM - 7:00 PM, Saturday 12:00 PM - 7:00 PM, Sunday 12:00 PM - 6:00 PM, Tuesday 12:00 PM - 7:00 PM, Wednesday 12:00 PM - 7:00 PM, Thursday 12:00 PM - 7:00 PM","<MISSING>","location_name:street_address"
"https://www.dillards.com/stores/florida/westfield-brandon-brandon/0204","Dillard's Westfield Brandon in Brandon, Florida","303 Brandon Town Center Dr","Brandon","FL","33511","<MISSING>","0204","(813)653-4436","DepartmentStore","27.93475","-82.32655","dillards.com","Friday 11:00 AM - 8:00 PM, Saturday 11:00 AM - 8:00 PM, Sunday 12:00 PM - 6:00 PM, Monday 11:00 AM - 8:00 PM, Tuesday 11:00 AM - 8:00 PM, Wednesday 11:00 AM - 8:00 PM, Thursday 11:00 AM - 8:00 PM","<MISSING>","location_name:street_address"
"https://www.dillards.com/stores/florida/countryside-mall-clearwater/0206","Dillard's Countryside Mall in Clearwater, Florida","27001 US-19","Clearwater","FL","33761","<MISSING>","0206","(727)796-2242","DepartmentStore","28.01886","-82.7331","dillards.com","Friday 11:00 AM - 8:00 PM, Saturday 11:00 AM - 8:00 PM, Sunday 12:00 PM - 6:00 PM, Monday 11:00 AM - 8:00 PM, Tuesday 11:00 AM - 8:00 PM, Wednesday 11:00 AM - 8:00 PM, Thursday 11:00 AM - 8:00 PM","<MISSING>","location_name:street_address"
"https://www.dillards.com/stores/florida/volusia-mall-daytona-beach/0235","Dillard's Volusia Mall in Daytona Beach, Florida","1700 W International Speedway Blvd","Daytona Beach","FL","32114","<MISSING>","0235","(386)255-8161","DepartmentStore","29.1986","-81.06278","dillards.com","Friday 11:00 AM - 8:00 PM, Saturday 11:00 AM - 8:00 PM, Sunday 12:00 PM - 6:00 PM, Monday 11:00 AM - 8:00 PM, Tuesday 11:00 AM - 8:00 PM, Wednesday 11:00 AM - 8:00 PM, Thursday 11:00 AM - 8:00 PM","<MISSING>","location_name:street_address"
"https://www.dillards.com/stores/florida/coconut-point-estero/0218","Dillard's Coconut Point in Estero, Florida","8017 Via Sardinia St","Estero","FL","33928","<MISSING>","0218","(239)947-4133","DepartmentStore","26.3999","-81.80703","dillards.com","Friday 11:00 AM - 8:00 PM, Saturday 11:00 AM - 8:00 PM, Sunday 12:00 PM - 6:00 PM, Monday 11:00 AM - 8:00 PM, Tuesday 11:00 AM - 8:00 PM, Wednesday 11:00 AM - 8:00 PM, Thursday 11:00 AM - 8:00 PM","<MISSING>","location_name:street_address"
"https://www.dillards.com/stores/florida/the-galleria-at-ft-lauderdale-ft.-lauderdale/0251","Dillard's The Galleria At Ft Lauderdale in Ft. Lauderdale, Florida","2500 E Sunrise Blvd","Ft. Lauderdale","FL","33304","<MISSING>","0251","(954)565-5245","DepartmentStore","26.13623","-80.11278","dillards.com","Friday 11:00 AM - 8:00 PM, Saturday 11:00 AM - 8:00 PM, Sunday 12:00 PM - 6:00 PM, Monday 11:00 AM - 8:00 PM, Tuesday 11:00 AM - 8:00 PM, Wednesday 11:00 AM - 8:00 PM, Thursday 11:00 AM - 8:00 PM","<MISSING>","location_name:street_address"
"https://www.dillards.com/stores/florida/edison-mall-ft.-myers/0215","Dillard's Edison Mall in Ft. Myers, Florida","4125 S Cleveland Ave","Ft. Myers","FL","33901","<MISSING>","0215","(239)936-1441","DepartmentStore","26.60128","-81.86683","dillards.com","Friday 11:00 AM - 8:00 PM, Saturday 11:00 AM - 8:00 PM, Sunday 12:00 PM - 6:00 PM, Monday 11:00 AM - 8:00 PM, Tuesday 11:00 AM - 8:00 PM, Wednesday 11:00 AM - 8:00 PM, Thursday 11:00 AM - 8:00 PM","<MISSING>","location_name:street_address"
"https://www.dillards.com/stores/florida/the-oaks-mall-gainesville/0234","Dillard's The Oaks Mall in Gainesville, Florida","6495 W Newberry Rd","Gainesville","FL","32605","<MISSING>","0234","(352)331-1455","DepartmentStore","29.65598","-82.4121","dillards.com","Friday 11:00 AM - 8:00 PM, Saturday 11:00 AM - 8:00 PM, Sunday 12:00 PM - 6:00 PM, Monday 11:00 AM - 8:00 PM, Tuesday 11:00 AM - 8:00 PM, Wednesday 11:00 AM - 8:00 PM, Thursday 11:00 AM - 8:00 PM","<MISSING>","location_name:street_address"
"https://www.dillards.com/stores/florida/regency-square-mall-jacksonville/0511","Dillard's Regency Square Mall in Jacksonville, Florida","9501 Arlington Expy","Jacksonville","FL","32225","<MISSING>","0511","(904)721-9166","DepartmentStore","30.32541","-81.55488","dillards.com","Friday 12:00 PM - 7:00 PM, Saturday 12:00 PM - 7:00 PM, Sunday 12:00 PM - 6:00 PM, Tuesday 12:00 PM - 7:00 PM, Wednesday 12:00 PM - 7:00 PM, Thursday 12:00 PM - 7:00 PM","<MISSING>","location_name:street_address"
"https://www.dillards.com/stores/florida/st.-johns-town-center-jacksonville/0230","Dillard's St. Johns Town Center in Jacksonville, Florida","4755 Town Crossing Dr","Jacksonville","FL","32246","<MISSING>","0230","(904)641-0471","DepartmentStore","30.25606","-81.52733","dillards.com","Friday 11:00 AM - 8:00 PM, Saturday 11:00 AM - 8:00 PM, Sunday 12:00 PM - 6:00 PM, Monday 11:00 AM - 8:00 PM, Tuesday 11:00 AM - 8:00 PM, Wednesday 11:00 AM - 8:00 PM, Thursday 11:00 AM - 8:00 PM","<MISSING>","location_name:street_address"
"https://www.dillards.com/stores/florida/the-avenues-jacksonville/0233","Dillard's The Avenues in Jacksonville, Florida","10300 Southside Blvd","Jacksonville","FL","32256","<MISSING>","0233","(904)363-6115","DepartmentStore","30.18531","-81.55488","dillards.com","Friday 11:00 AM - 8:00 PM, Saturday 11:00 AM - 8:00 PM, Sunday 12:00 PM - 6:00 PM, Monday 11:00 AM - 8:00 PM, Tuesday 11:00 AM - 8:00 PM, Wednesday 11:00 AM - 8:00 PM, Thursday 11:00 AM - 8:00 PM","<MISSING>","location_name:street_address"
"https://www.dillards.com/stores/florida/treasure-coast-square-jensen-beach/0238","Dillard's Treasure Coast Square in Jensen Beach, Florida","3210 NW Federal Hwy","Jensen Beach","FL","34957","<MISSING>","0238","(772)692-0555","DepartmentStore","27.24276","-80.27598","dillards.com","Friday 11:00 AM - 8:00 PM, Saturday 11:00 AM - 8:00 PM, Sunday 12:00 PM - 6:00 PM, Monday 11:00 AM - 8:00 PM, Tuesday 11:00 AM - 8:00 PM, Wednesday 11:00 AM - 8:00 PM, Thursday 11:00 AM - 8:00 PM","<MISSING>","location_name:street_address"
"https://www.dillards.com/stores/florida/eagle-ridge-mall-lake-wales/0210","Dillard's Eagle Ridge Mall in Lake Wales, Florida","100 Eagle Ridge Mall Ent","Lake Wales","FL","33859","<MISSING>","0210","(863)676-7646","DepartmentStore","27.95273","-81.61733","dillards.com","Friday 11:00 AM - 8:00 PM, Saturday 11:00 AM - 8:00 PM, Sunday 12:00 PM - 6:00 PM, Monday 11:00 AM - 8:00 PM, Tuesday 11:00 AM - 8:00 PM, Wednesday 11:00 AM - 8:00 PM, Thursday 11:00 AM - 8:00 PM","<MISSING>","location_name:street_address"
"https://www.dillards.com/stores/florida/lakeland-square-mall-lakeland/0209","Dillard's Lakeland Square Mall in Lakeland, Florida","3800 US Hwy 98 N","Lakeland","FL","33809","<MISSING>","0209","(863)859-2000","DepartmentStore","28.09183","-81.97643","dillards.com","Friday 11:00 AM - 8:00 PM, Saturday 11:00 AM - 8:00 PM, Sunday 12:00 PM - 6:00 PM, Monday 11:00 AM - 8:00 PM, Tuesday 11:00 AM - 8:00 PM, Wednesday 11:00 AM - 8:00 PM, Thursday 11:00 AM - 8:00 PM","<MISSING>","location_name:street_address"
"https://www.dillards.com/stores/florida/santa-rosa-mall-mary-esther/0246","Dillard's Santa Rosa Mall in Mary Esther, Florida","300 Mary Esther Blvd #119","Mary Esther","FL","32569","<MISSING>","0246","(850)244-7111","DepartmentStore","30.41656","-86.65698","dillards.com","Friday 11:00 AM - 8:00 PM, Saturday 11:00 AM - 8:00 PM, Sunday 12:00 PM - 6:00 PM, Monday 11:00 AM - 8:00 PM, Tuesday 11:00 AM - 8:00 PM, Wednesday 11:00 AM - 8:00 PM, Thursday 11:00 AM - 8:00 PM","<MISSING>","location_name:street_address"
"https://www.dillards.com/stores/florida/melbourne-square-melbourne/0237","Dillard's Melbourne Square in Melbourne, Florida","1700 W New Haven Ave #801","Melbourne","FL","32904","<MISSING>","0237","(321)676-1300","DepartmentStore","28.0824","-80.65051","dillards.com","Friday 11:00 AM - 8:00 PM, Saturday 11:00 AM - 8:00 PM, Sunday 12:00 PM - 6:00 PM, Monday 11:00 AM - 8:00 PM, Tuesday 11:00 AM - 8:00 PM, Wednesday 11:00 AM - 8:00 PM, Thursday 11:00 AM - 8:00 PM","<MISSING>","location_name:street_address"
"https://www.dillards.com/stores/florida/merritt-square-mall-merritt-island/0236","Dillard's Merritt Square Mall in Merritt Island, Florida","777 E Merritt Island Causeway","Merritt Island","FL","32952","<MISSING>","0236","(321)452-6411","DepartmentStore","28.35488","-80.68565","dillards.com","Friday 11:00 AM - 8:00 PM, Saturday 11:00 AM - 8:00 PM, Sunday 12:00 PM - 6:00 PM, Monday 11:00 AM - 8:00 PM, Tuesday 11:00 AM - 8:00 PM, Wednesday 11:00 AM - 8:00 PM, Thursday 11:00 AM - 8:00 PM","<MISSING>","location_name:street_address"
"https://www.dillards.com/stores/florida/coastland-center-naples/0216","Dillard's Coastland Center in Naples, Florida","1798 Tamiami Trail N","Naples","FL","34102","<MISSING>","0216","(239)261-4100","DepartmentStore","26.17","-81.79266","dillards.com","Friday 11:00 AM - 8:00 PM, Saturday 11:00 AM - 8:00 PM, Sunday 12:00 PM - 6:00 PM, Monday 11:00 AM - 8:00 PM, Tuesday 11:00 AM - 8:00 PM, Wednesday 11:00 AM - 8:00 PM, Thursday 11:00 AM - 8:00 PM","<MISSING>","location_name:street_address"
"https://www.dillards.com/stores/florida/market-street-at-heath-brook-ocala/0229","Dillard's Market Street At Heath Brook in Ocala, Florida","4414 SW College Rd","Ocala","FL","34474","<MISSING>","0229","(352)629-9266","DepartmentStore","29.13851","-82.183","dillards.com","Friday 11:00 AM - 8:00 PM, Saturday 11:00 AM - 8:00 PM, Sunday 12:00 PM - 6:00 PM, Monday 11:00 AM - 8:00 PM, Tuesday 11:00 AM - 8:00 PM, Wednesday 11:00 AM - 8:00 PM, Thursday 11:00 AM - 8:00 PM","<MISSING>","location_name:street_address"
"https://www.dillards.com/stores/florida/west-oaks-mall-ocoee/0516","Dillard's West Oaks Mall in Ocoee, Florida","9403 W Colonial Dr","Ocoee","FL","34761","<MISSING>","0516","(407)292-6866","DepartmentStore","28.5543","-81.5156","dillards.com","Friday 12:00 PM - 7:00 PM, Saturday 12:00 PM - 7:00 PM, Sunday 12:00 PM - 6:00 PM, Tuesday 12:00 PM - 7:00 PM, Wednesday 12:00 PM - 7:00 PM, Thursday 12:00 PM - 7:00 PM","<MISSING>","location_name:street_address"
"https://www.dillards.com/stores/florida/orange-park-mall-orange-park/0232","Dillard's Orange Park Mall in Orange Park, Florida","1910 Wells Rd","Orange Park","FL","32073","<MISSING>","0232","(904)269-2222","DepartmentStore","30.18356","-81.7351","dillards.com","Friday 11:00 AM - 8:00 PM, Saturday 11:00 AM - 8:00 PM, Sunday 12:00 PM - 6:00 PM, Monday 11:00 AM - 8:00 PM, Tuesday 11:00 AM - 8:00 PM, Wednesday 11:00 AM - 8:00 PM, Thursday 11:00 AM - 8:00 PM","<MISSING>","location_name:street_address"
"https://www.dillards.com/stores/florida/fashion-square-mall-orlando/0515","Dillard's Fashion Square Mall in Orlando, Florida","3403 E Colonial Dr","Orlando","FL","32803","<MISSING>","0515","(407)896-1211","DepartmentStore","28.55701","-81.3392","dillards.com","Friday 12:00 PM - 7:00 PM, Saturday 12:00 PM - 7:00 PM, Sunday 12:00 PM - 6:00 PM, Tuesday 12:00 PM - 7:00 PM, Wednesday 12:00 PM - 7:00 PM, Thursday 12:00 PM - 7:00 PM","<MISSING>","location_name:street_address"
"https://www.dillards.com/stores/florida/the-florida-mall-orlando/0221","Dillard's The Florida Mall in Orlando, Florida","8001 S Orange Blossom Trail","Orlando","FL","32809","<MISSING>","0221","(407)240-1771","DepartmentStore","28.44651","-81.39133","dillards.com","Friday 11:00 AM - 8:00 PM, Saturday 11:00 AM - 8:00 PM, Sunday 12:00 PM - 6:00 PM, Monday 11:00 AM - 8:00 PM, Tuesday 11:00 AM - 8:00 PM, Wednesday 11:00 AM - 8:00 PM, Thursday 11:00 AM - 8:00 PM","<MISSING>","location_name:street_address"
"https://www.dillards.com/stores/florida/oviedo-mall-oviedo/0222","Dillard's Oviedo Mall in Oviedo, Florida","1000 Oviedo Marketplace Blvd","Oviedo","FL","32765","<MISSING>","0222","(407)977-9996","DepartmentStore","28.66163","-81.23703","dillards.com","Friday 11:00 AM - 8:00 PM, Saturday 11:00 AM - 8:00 PM, Sunday 12:00 PM - 6:00 PM, Monday 11:00 AM - 8:00 PM, Tuesday 11:00 AM - 8:00 PM, Wednesday 11:00 AM - 8:00 PM, Thursday 11:00 AM - 8:00 PM","<MISSING>","location_name:street_address"
"https://www.dillards.com/stores/florida/panama-city-mall-panama-city/0248","Dillard's Panama City Mall in Panama City, Florida","2298 Martin Luther King Jr Blvd","Panama City","FL","32405","<MISSING>","0248","(850)769-7671","DepartmentStore","30.18848","-85.64746","dillards.com","Friday 11:00 AM - 8:00 PM, Saturday 11:00 AM - 8:00 PM, Sunday 12:00 PM - 6:00 PM, Monday 11:00 AM - 8:00 PM, Tuesday 11:00 AM - 8:00 PM, Wednesday 11:00 AM - 8:00 PM, Thursday 11:00 AM - 8:00 PM","<MISSING>","location_name:street_address"
"https://www.dillards.com/stores/florida/pier-park-panama-city-beach/0247","Dillard's Pier Park in Panama City Beach, Florida","200 Pier Park Dr","Panama City Beach","FL","32413","<MISSING>","0247","(850)234-2417","DepartmentStore","30.22103","-85.87123","dillards.com","Friday 11:00 AM - 8:00 PM, Saturday 11:00 AM - 8:00 PM, Sunday 12:00 PM - 6:00 PM, Monday 11:00 AM - 8:00 PM, Tuesday 11:00 AM - 8:00 PM, Wednesday 11:00 AM - 8:00 PM, Thursday 11:00 AM - 8:00 PM","<MISSING>","location_name:street_address"
"https://www.dillards.com/stores/florida/pembroke-lakes-mall-pembroke-pines/0253","Dillard's Pembroke Lakes Mall in Pembroke Pines, Florida","11945 Pines Blvd","Pembroke Pines","FL","33026","<MISSING>","0253","(954)450-8661","DepartmentStore","26.00895","-80.30586","dillards.com","Friday 11:00 AM - 8:00 PM, Saturday 11:00 AM - 8:00 PM, Sunday 12:00 PM - 6:00 PM, Monday 11:00 AM - 8:00 PM, Tuesday 11:00 AM - 8:00 PM, Wednesday 11:00 AM - 8:00 PM, Thursday 11:00 AM - 8:00 PM","<MISSING>","location_name:street_address"
"https://www.dillards.com/stores/florida/cordova-mall-pensacola/0242","Dillard's Cordova Mall in Pensacola, Florida","5100 N 9th Ave","Pensacola","FL","32504","<MISSING>","0242","(850)476-3011","DepartmentStore","30.4744","-87.20955","dillards.com","Friday 11:00 AM - 8:00 PM, Saturday 11:00 AM - 8:00 PM, Sunday 12:00 PM - 6:00 PM, Monday 11:00 AM - 8:00 PM, Tuesday 11:00 AM - 8:00 PM, Wednesday 11:00 AM - 8:00 PM, Thursday 11:00 AM - 8:00 PM","<MISSING>","location_name:street_address"
"https://www.dillards.com/stores/florida/broward-mall-plantation/0252","Dillard's Broward Mall in Plantation, Florida","8000 W Broward Blvd #150","Plantation","FL","33388","<MISSING>","0252","(954)370-8182","DepartmentStore","26.1178","-80.2569","dillards.com","Friday 11:00 AM - 8:00 PM, Saturday 11:00 AM - 8:00 PM, Sunday 12:00 PM - 6:00 PM, Monday 11:00 AM - 8:00 PM, Tuesday 11:00 AM - 8:00 PM, Wednesday 11:00 AM - 8:00 PM, Thursday 11:00 AM - 8:00 PM","<MISSING>","location_name:street_address"
"https://www.dillards.com/stores/florida/port-charlotte-town-center-port-charlotte/0214","Dillard's Port Charlotte Town Center in Port Charlotte, Florida","1441 Tamiami Trail","Port Charlotte","FL","33948","<MISSING>","0214","(941)255-1778","DepartmentStore","27.00936","-82.14428","dillards.com","Friday 11:00 AM - 8:00 PM, Saturday 11:00 AM - 8:00 PM, Sunday 12:00 PM - 6:00 PM, Monday 11:00 AM - 8:00 PM, Tuesday 11:00 AM - 8:00 PM, Wednesday 11:00 AM - 8:00 PM, Thursday 11:00 AM - 8:00 PM","<MISSING>","location_name:street_address"
"https://www.dillards.com/stores/florida/gulf-view-square-port-richey/0527","Dillard's Gulf View Square in Port Richey, Florida","9409 U.s. Highway 19","Port Richey","FL","34668","<MISSING>","0527","(727)847-9393","DepartmentStore","28.2953","-82.71091","dillards.com","Friday 12:00 PM - 7:00 PM, Saturday 12:00 PM - 7:00 PM, Sunday 12:00 PM - 6:00 PM, Tuesday 12:00 PM - 7:00 PM, Wednesday 12:00 PM - 7:00 PM, Thursday 12:00 PM - 7:00 PM","<MISSING>","location_name:street_address"
"https://www.dillards.com/stores/florida/seminole-towne-center-sanford/0224","Dillard's Seminole Towne Center in Sanford, Florida","300 Town Center Cir","Sanford","FL","32771","<MISSING>","0224","(407)330-1775","DepartmentStore","28.80616","-81.33735","dillards.com","Friday 11:00 AM - 8:00 PM, Saturday 11:00 AM - 8:00 PM, Sunday 12:00 PM - 6:00 PM, Monday 11:00 AM - 8:00 PM, Tuesday 11:00 AM - 8:00 PM, Wednesday 11:00 AM - 8:00 PM, Thursday 11:00 AM - 8:00 PM","<MISSING>","location_name:street_address"
"https://www.dillards.com/stores/florida/the-mall-at-utc-sarasota/0213","Dillard's The Mall At Utc in Sarasota, Florida","200 University Town Center Dr","Sarasota","FL","34243","<MISSING>","0213","(941)527-4878","DepartmentStore","27.3845","-82.4531","dillards.com","Friday 11:00 AM - 8:00 PM, Saturday 11:00 AM - 8:00 PM, Sunday 12:00 PM - 6:00 PM, Monday 11:00 AM - 8:00 PM, Tuesday 11:00 AM - 8:00 PM, Wednesday 11:00 AM - 8:00 PM, Thursday 11:00 AM - 8:00 PM","<MISSING>","location_name:street_address"
"https://www.dillards.com/stores/florida/tyrone-square-st.-petersburg/0205","Dillard's Tyrone Square in St. Petersburg, Florida","6990 Tyrone Square","St. Petersburg","FL","33710","<MISSING>","0205","(727)344-4611","DepartmentStore","27.79325","-82.73505","dillards.com","Friday 11:00 AM - 8:00 PM, Saturday 11:00 AM - 8:00 PM, Sunday 12:00 PM - 6:00 PM, Monday 11:00 AM - 8:00 PM, Tuesday 11:00 AM - 8:00 PM, Wednesday 11:00 AM - 8:00 PM, Thursday 11:00 AM - 8:00 PM","<MISSING>","location_name:street_address"
"https://www.dillards.com/stores/florida/governors-square-tallahassee/0243","Dillard's Governor's Square in Tallahassee, Florida","1500 Apalachee Pkwy","Tallahassee","FL","32301","<MISSING>","0243","(850)671-2000","DepartmentStore","30.43755","-84.25235","dillards.com","Friday 11:00 AM - 8:00 PM, Saturday 11:00 AM - 8:00 PM, Sunday 12:00 PM - 6:00 PM, Monday 11:00 AM - 8:00 PM, Tuesday 11:00 AM - 8:00 PM, Wednesday 11:00 AM - 8:00 PM, Thursday 11:00 AM - 8:00 PM","<MISSING>","location_name:street_address"
"https://www.dillards.com/stores/florida/international-plaza-and-bay-tampa/0201","Dillard's International Plaza And Bay in Tampa, Florida","2223 N Westshore Blvd #500","Tampa","FL","33607","<MISSING>","0201","(813)342-1220","DepartmentStore","27.96308","-82.51968","dillards.com","Friday 11:00 AM - 8:00 PM, Saturday 11:00 AM - 8:00 PM, Sunday 12:00 PM - 6:00 PM, Monday 11:00 AM - 8:00 PM, Tuesday 11:00 AM - 8:00 PM, Wednesday 11:00 AM - 8:00 PM, Thursday 11:00 AM - 8:00 PM","<MISSING>","location_name:street_address"
"https://www.dillards.com/stores/florida/citrus-park-town-center-tampa/0203","Dillard's Citrus Park Town Center in Tampa, Florida","8161 Citrus Park Town Center Mall","Tampa","FL","33625","<MISSING>","0203","(813)926-4545","DepartmentStore","28.06755","-82.57936","dillards.com","Friday 11:00 AM - 8:00 PM, Saturday 11:00 AM - 8:00 PM, Sunday 12:00 PM - 6:00 PM, Monday 11:00 AM - 8:00 PM, Tuesday 11:00 AM - 8:00 PM, Wednesday 11:00 AM - 8:00 PM, Thursday 11:00 AM - 8:00 PM","<MISSING>","location_name:street_address"
"https://www.dillards.com/stores/florida/indian-river-mall-vero-beach/0244","Dillard's Indian River Mall in Vero Beach, Florida","6200 20th St","Vero Beach","FL","32966","<MISSING>","0244","(772)770-2141","DepartmentStore","27.64318","-80.46111","dillards.com","Friday 11:00 AM - 8:00 PM, Saturday 11:00 AM - 8:00 PM, Sunday 12:00 PM - 6:00 PM, Monday 11:00 AM - 8:00 PM, Tuesday 11:00 AM - 8:00 PM, Wednesday 11:00 AM - 8:00 PM, Thursday 11:00 AM - 8:00 PM","<MISSING>","location_name:street_address"
"https://www.dillards.com/stores/florida/the-mall-at-wellington-green-wellington/0256","Dillard's The Mall At Wellington Green in Wellington, Florida","10304 Forest Hill Blvd","Wellington","FL","33414","<MISSING>","0256","(561)227-5470","DepartmentStore","26.6481","-80.20956","dillards.com","Friday 11:00 AM - 8:00 PM, Saturday 11:00 AM - 8:00 PM, Sunday 12:00 PM - 6:00 PM, Monday 11:00 AM - 8:00 PM, Tuesday 11:00 AM - 8:00 PM, Wednesday 11:00 AM - 8:00 PM, Thursday 11:00 AM - 8:00 PM","<MISSING>","location_name:street_address"
"https://www.dillards.com/stores/florida/the-shops-at-wiregrass-wesley-chapel/0208","Dillard's The Shops At Wiregrass in Wesley Chapel, Florida","28335 Paseo Drive","Wesley Chapel","FL","33543","<MISSING>","0208","(813)991-1352","DepartmentStore","28.18788","-82.3492","dillards.com","Friday 11:00 AM - 8:00 PM, Saturday 11:00 AM - 8:00 PM, Sunday 12:00 PM - 6:00 PM, Monday 11:00 AM - 8:00 PM, Tuesday 11:00 AM - 8:00 PM, Wednesday 11:00 AM - 8:00 PM, Thursday 11:00 AM - 8:00 PM","<MISSING>","location_name:street_address"
"https://www.dillards.com/stores/georgia/albany-mall-albany/0276","Dillard's Albany Mall in Albany, Georgia","2601 Dawson Rd","Albany","GA","31707","<MISSING>","0276","(229)883-7900","DepartmentStore","31.61815","-84.2186","dillards.com","Friday 11:00 AM - 8:00 PM, Saturday 11:00 AM - 8:00 PM, Sunday 12:00 PM - 6:00 PM, Monday 11:00 AM - 8:00 PM, Tuesday 11:00 AM - 8:00 PM, Wednesday 11:00 AM - 8:00 PM, Thursday 11:00 AM - 8:00 PM","<MISSING>","location_name:street_address"
"https://www.dillards.com/stores/georgia/north-point-mall-alpharetta/0260","Dillard's North Point Mall in Alpharetta, Georgia","7000 North Point Cir","Alpharetta","GA","30022","<MISSING>","0260","(770)410-9020","DepartmentStore","34.04678","-84.29543","dillards.com","Friday 11:00 AM - 8:00 PM, Saturday 11:00 AM - 8:00 PM, Sunday 12:00 PM - 6:00 PM, Monday 11:00 AM - 8:00 PM, Tuesday 11:00 AM - 8:00 PM, Wednesday 11:00 AM - 8:00 PM, Thursday 11:00 AM - 8:00 PM","<MISSING>","location_name:street_address"
"https://www.dillards.com/stores/georgia/perimeter-mall-atlanta/0264","Dillard's Perimeter Mall in Atlanta, Georgia","4500 Ashford Dunwoody Rd NE","Atlanta","GA","30346","<MISSING>","0264","(678)320-9140","DepartmentStore","33.9254","-84.33973","dillards.com","Friday 11:00 AM - 8:00 PM, Saturday 11:00 AM - 8:00 PM, Sunday 12:00 PM - 6:00 PM, Monday 11:00 AM - 8:00 PM, Tuesday 11:00 AM - 8:00 PM, Wednesday 11:00 AM - 8:00 PM, Thursday 11:00 AM - 8:00 PM","<MISSING>","location_name:street_address"
"https://www.dillards.com/stores/georgia/atlantic-station-atlanta/0265","Dillard's Atlantic Station in Atlanta, Georgia","1371 Market St NW","Atlanta","GA","30363","<MISSING>","0265","(404)879-0635","DepartmentStore","33.79263","-84.39385","dillards.com","Friday 11:00 AM - 8:00 PM, Saturday 11:00 AM - 8:00 PM, Sunday 12:00 PM - 6:00 PM, Monday 11:00 AM - 8:00 PM, Tuesday 11:00 AM - 8:00 PM, Wednesday 11:00 AM - 8:00 PM, Thursday 11:00 AM - 8:00 PM","<MISSING>","location_name:street_address"
"https://www.dillards.com/stores/georgia/augusta-mall-augusta/0267","Dillard's Augusta Mall in Augusta, Georgia","3450 Wrightsboro Rd","Augusta","GA","30909","<MISSING>","0267","(706)481-0600","DepartmentStore","33.46191","-82.07615","dillards.com","Friday 11:00 AM - 8:00 PM, Saturday 11:00 AM - 8:00 PM, Sunday 12:00 PM - 6:00 PM, Monday 11:00 AM - 8:00 PM, Tuesday 11:00 AM - 8:00 PM, Wednesday 11:00 AM - 8:00 PM, Thursday 11:00 AM - 8:00 PM","<MISSING>","location_name:street_address"
"https://www.dillards.com/stores/georgia/mall-of-georgia-buford/0261","Dillard's Mall Of Georgia in Buford, Georgia","3333 Buford Dr","Buford","GA","30519","<MISSING>","0261","(678)482-5241","DepartmentStore","34.06298","-83.986","dillards.com","Friday 11:00 AM - 8:00 PM, Saturday 11:00 AM - 8:00 PM, Sunday 12:00 PM - 6:00 PM, Monday 11:00 AM - 8:00 PM, Tuesday 11:00 AM - 8:00 PM, Wednesday 11:00 AM - 8:00 PM, Thursday 11:00 AM - 8:00 PM","<MISSING>","location_name:street_address"
"https://www.dillards.com/stores/georgia/peachtree-mall-columbus/0275","Dillard's Peachtree Mall in Columbus, Georgia","3247 Manchester Expy","Columbus","GA","31909","<MISSING>","0275","(706)324-7272","DepartmentStore","32.50913","-84.94143","dillards.com","Friday 11:00 AM - 8:00 PM, Saturday 11:00 AM - 8:00 PM, Sunday 12:00 PM - 6:00 PM, Monday 11:00 AM - 8:00 PM, Tuesday 11:00 AM - 8:00 PM, Wednesday 11:00 AM - 8:00 PM, Thursday 11:00 AM - 8:00 PM","<MISSING>","location_name:street_address"
"https://www.dillards.com/stores/georgia/arbor-place-douglasville/0262","Dillard's Arbor Place in Douglasville, Georgia","6720 Douglas Blvd","Douglasville","GA","30135","<MISSING>","0262","(770)577-4271","DepartmentStore","33.72775","-84.74911","dillards.com","Friday 11:00 AM - 8:00 PM, Saturday 11:00 AM - 8:00 PM, Sunday 12:00 PM - 6:00 PM, Monday 11:00 AM - 8:00 PM, Tuesday 11:00 AM - 8:00 PM, Wednesday 11:00 AM - 8:00 PM, Thursday 11:00 AM - 8:00 PM","<MISSING>","location_name:street_address"
"https://www.dillards.com/stores/georgia/the-mall-at-stonecrest-lithonia/0263","Dillard's The Mall At Stonecrest in Lithonia, Georgia","8000 Mall Pkwy","Lithonia","GA","30038","<MISSING>","0263","(770)666-0000","DepartmentStore","33.69703","-84.0964","dillards.com","Friday 11:00 AM - 8:00 PM, Saturday 11:00 AM - 8:00 PM, Sunday 12:00 PM - 6:00 PM, Monday 11:00 AM - 8:00 PM, Tuesday 11:00 AM - 8:00 PM, Wednesday 11:00 AM - 8:00 PM, Thursday 11:00 AM - 8:00 PM","<MISSING>","location_name:street_address"
"https://www.dillards.com/stores/georgia/the-shoppes-at-river-crossing-macon/0268","Dillard's The Shoppes At River Crossing in Macon, Georgia","5080 Riverside Dr Suite 800","Macon","GA","31210","<MISSING>","0268","(478)474-4545","DepartmentStore","32.9294","-83.71386","dillards.com","Friday 11:00 AM - 8:00 PM, Saturday 11:00 AM - 8:00 PM, Sunday 12:00 PM - 6:00 PM, Monday 11:00 AM - 8:00 PM, Tuesday 11:00 AM - 8:00 PM, Wednesday 11:00 AM - 8:00 PM, Thursday 11:00 AM - 8:00 PM","<MISSING>","location_name:street_address"
"https://www.dillards.com/stores/georgia/ashley-park-newnan/0266","Dillard's Ashley Park in Newnan, Georgia","370 Newnan Crossing Bypass","Newnan","GA","30265","<MISSING>","0266","(770)254-0166","DepartmentStore","33.38768","-84.76593","dillards.com","Friday 11:00 AM - 8:00 PM, Saturday 11:00 AM - 8:00 PM, Sunday 12:00 PM - 6:00 PM, Monday 11:00 AM - 8:00 PM, Tuesday 11:00 AM - 8:00 PM, Wednesday 11:00 AM - 8:00 PM, Thursday 11:00 AM - 8:00 PM","<MISSING>","location_name:street_address"
"https://www.dillards.com/stores/georgia/savannah-mall-savannah/0277","Dillard's Savannah Mall in Savannah, Georgia","14025 Abercorn St","Savannah","GA","31419","<MISSING>","0277","(912)920-9000","DepartmentStore","31.9811","-81.17048","dillards.com","Friday 11:00 AM - 8:00 PM, Saturday 11:00 AM - 8:00 PM, Sunday 12:00 PM - 6:00 PM, Monday 11:00 AM - 8:00 PM, Tuesday 11:00 AM - 8:00 PM, Wednesday 11:00 AM - 8:00 PM, Thursday 11:00 AM - 8:00 PM","<MISSING>","location_name:street_address"
"https://www.dillards.com/stores/idaho/boise-towne-square-boise/0934","Dillard's Boise Towne Square in Boise, Idaho","350 N Milwaukee St","Boise","ID","83704","<MISSING>","0934","(208)321-4646","DepartmentStore","43.60961","-116.27636","dillards.com","Friday 11:00 AM - 8:00 PM, Saturday 11:00 AM - 8:00 PM, Sunday 12:00 PM - 6:00 PM, Monday 11:00 AM - 8:00 PM, Tuesday 11:00 AM - 8:00 PM, Wednesday 11:00 AM - 8:00 PM, Thursday 11:00 AM - 8:00 PM","<MISSING>","location_name:street_address"
"https://www.dillards.com/stores/idaho/grand-teton-mall-idaho-falls/0936","Dillard's Grand Teton Mall in Idaho Falls, Idaho","2420 E 17th St","Idaho Falls","ID","83404","<MISSING>","0936","(208)525-4000","DepartmentStore","43.4793","-111.9862","dillards.com","Friday 11:00 AM - 8:00 PM, Saturday 11:00 AM - 8:00 PM, Sunday 12:00 PM - 6:00 PM, Monday 11:00 AM - 8:00 PM, Tuesday 11:00 AM - 8:00 PM, Wednesday 11:00 AM - 8:00 PM, Thursday 11:00 AM - 8:00 PM","<MISSING>","location_name:street_address"
"https://www.dillards.com/stores/illinois/st-clair-square-fairview-heights/0306","Dillard's St Clair Square in Fairview Heights, Illinois","275 St Clair Square","Fairview Heights","IL","62208","<MISSING>","0306","(618)632-5000","DepartmentStore","38.59718","-89.97891","dillards.com","Friday 11:00 AM - 8:00 PM, Saturday 11:00 AM - 8:00 PM, Sunday 12:00 PM - 6:00 PM, Monday 11:00 AM - 8:00 PM, Tuesday 11:00 AM - 8:00 PM, Wednesday 11:00 AM - 8:00 PM, Thursday 11:00 AM - 8:00 PM","<MISSING>","location_name:street_address"
"https://www.dillards.com/stores/illinois/illinois-center-marion/0310","Dillard's Illinois Center in Marion, Illinois","3000 W Deyoung St","Marion","IL","62959","<MISSING>","0310","(618)993-6000","DepartmentStore","37.74711","-88.97578","dillards.com","Friday 11:00 AM - 8:00 PM, Saturday 11:00 AM - 8:00 PM, Sunday 12:00 PM - 6:00 PM, Monday 11:00 AM - 8:00 PM, Tuesday 11:00 AM - 8:00 PM, Wednesday 11:00 AM - 8:00 PM, Thursday 11:00 AM - 8:00 PM","<MISSING>","location_name:street_address"
"https://www.dillards.com/stores/illinois/southpark-mall-moline/0525","Dillard's Southpark Mall in Moline, Illinois","4500 16th St","Moline","IL","61265","<MISSING>","0525","(309)797-1866","DepartmentStore","41.46871","-90.50233","dillards.com","Friday 12:00 PM - 7:00 PM, Saturday 12:00 PM - 7:00 PM, Sunday 12:00 PM - 6:00 PM, Tuesday 12:00 PM - 7:00 PM, Wednesday 12:00 PM - 7:00 PM, Thursday 12:00 PM - 7:00 PM","<MISSING>","location_name:street_address"
"https://www.dillards.com/stores/indiana/green-tree-mall-clarksville/0395","Dillard's Green Tree Mall in Clarksville, Indiana","757 E Lewis and Clark Pkwy","Clarksville","IN","47129","<MISSING>","0395","(812)285-0161","DepartmentStore","38.31773","-85.7641","dillards.com","Friday 11:00 AM - 8:00 PM, Saturday 11:00 AM - 8:00 PM, Sunday 12:00 PM - 6:00 PM, Monday 11:00 AM - 8:00 PM, Tuesday 11:00 AM - 8:00 PM, Wednesday 11:00 AM - 8:00 PM, Thursday 11:00 AM - 8:00 PM","<MISSING>","location_name:street_address"
"https://www.dillards.com/stores/indiana/eastland-mall-evansville/0394","Dillard's Eastland Mall in Evansville, Indiana","800 N Green River Rd","Evansville","IN","47715","<MISSING>","0394","(812)473-1583","DepartmentStore","37.98528","-87.49705","dillards.com","Friday 11:00 AM - 8:00 PM, Saturday 11:00 AM - 8:00 PM, Sunday 12:00 PM - 6:00 PM, Monday 11:00 AM - 8:00 PM, Tuesday 11:00 AM - 8:00 PM, Wednesday 11:00 AM - 8:00 PM, Thursday 11:00 AM - 8:00 PM","<MISSING>","location_name:street_address"
"https://www.dillards.com/stores/indiana/richmond-mall-richmond/0359","Dillard's Richmond Mall in Richmond, Indiana","3801 National Rd E #733","Richmond","IN","47374","<MISSING>","0359","(765)966-8211","DepartmentStore","39.8286","-84.84543","dillards.com","Friday 11:00 AM - 8:00 PM, Saturday 11:00 AM - 8:00 PM, Sunday 12:00 PM - 6:00 PM, Monday 11:00 AM - 8:00 PM, Tuesday 11:00 AM - 8:00 PM, Wednesday 11:00 AM - 8:00 PM, Thursday 11:00 AM - 8:00 PM","<MISSING>","location_name:street_address"
"https://www.dillards.com/stores/iowa/coral-ridge-mall-coralville/0346","Dillard's Coral Ridge Mall in Coralville, Iowa","1411 Coral Ridge Ave","Coralville","IA","52241","<MISSING>","0346","(319)499-6010","DepartmentStore","41.687","-91.60295","dillards.com","Friday 11:00 AM - 8:00 PM, Saturday 11:00 AM - 8:00 PM, Sunday 12:00 PM - 6:00 PM, Monday 11:00 AM - 8:00 PM, Tuesday 11:00 AM - 8:00 PM, Wednesday 11:00 AM - 8:00 PM, Thursday 11:00 AM - 8:00 PM","<MISSING>","location_name:street_address"
"https://www.dillards.com/stores/iowa/northpark-mall-davenport/0348","Dillard's Northpark Mall in Davenport, Iowa","320 W Kimberly Rd","Davenport","IA","52806","<MISSING>","0348","(563)388-7954","DepartmentStore","41.56286","-90.57833","dillards.com","Friday 11:00 AM - 8:00 PM, Saturday 11:00 AM - 8:00 PM, Sunday 12:00 PM - 6:00 PM, Monday 11:00 AM - 8:00 PM, Tuesday 11:00 AM - 8:00 PM, Wednesday 11:00 AM - 8:00 PM, Thursday 11:00 AM - 8:00 PM","<MISSING>","location_name:street_address"
"https://www.dillards.com/stores/iowa/jordan-creek-town-center-west-des-moines/0340","Dillard's Jordan Creek Town Center in West Des Moines, Iowa","101 Jordan Creek Pkwy","West Des Moines","IA","50266","<MISSING>","0340","(515)440-2277","DepartmentStore","41.57008","-93.80173","dillards.com","Friday 11:00 AM - 8:00 PM, Saturday 11:00 AM - 8:00 PM, Sunday 12:00 PM - 6:00 PM, Monday 11:00 AM - 8:00 PM, Tuesday 11:00 AM - 8:00 PM, Wednesday 11:00 AM - 8:00 PM, Thursday 11:00 AM - 8:00 PM","<MISSING>","location_name:street_address"
"https://www.dillards.com/stores/kansas/manhattan-town-center-manhattan/0335","Dillard's Manhattan Town Center in Manhattan, Kansas","102 Manhattan Town Center","Manhattan","KS","66502","<MISSING>","0335","(785)776-4224","DepartmentStore","39.1807","-96.55878","dillards.com","Friday 11:00 AM - 8:00 PM, Saturday 11:00 AM - 8:00 PM, Sunday 12:00 PM - 6:00 PM, Monday 11:00 AM - 8:00 PM, Tuesday 11:00 AM - 8:00 PM, Wednesday 11:00 AM - 8:00 PM, Thursday 11:00 AM - 8:00 PM","<MISSING>","location_name:street_address"
"https://www.dillards.com/stores/kansas/oak-park-mall-overland-park/0322","Dillard's Oak Park Mall in Overland Park, Kansas","11601 W 95th St","Overland Park","KS","66214","<MISSING>","0322","(913)492-0666","DepartmentStore","38.95265","-94.72016","dillards.com","Friday 11:00 AM - 8:00 PM, Saturday 11:00 AM - 8:00 PM, Sunday 12:00 PM - 6:00 PM, Monday 11:00 AM - 8:00 PM, Tuesday 11:00 AM - 8:00 PM, Wednesday 11:00 AM - 8:00 PM, Thursday 11:00 AM - 8:00 PM","<MISSING>","location_name:street_address"
"https://www.dillards.com/stores/kansas/west-ridge-mall-topeka/0336","Dillard's West Ridge Mall in Topeka, Kansas","1791 SW Wanamaker Rd","Topeka","KS","66604","<MISSING>","0336","(785)273-5451","DepartmentStore","39.03331","-95.76428","dillards.com","Friday 11:00 AM - 8:00 PM, Saturday 11:00 AM - 8:00 PM, Sunday 12:00 PM - 6:00 PM, Monday 11:00 AM - 8:00 PM, Tuesday 11:00 AM - 8:00 PM, Wednesday 11:00 AM - 8:00 PM, Thursday 11:00 AM - 8:00 PM","<MISSING>","location_name:street_address"
"https://www.dillards.com/stores/kansas/towne-west-square-wichita/0522","Dillard's Towne West Square in Wichita, Kansas","4600 W Kellogg Dr Suite 300","Wichita","KS","67209","<MISSING>","0522","(316)943-8031","DepartmentStore","37.67856","-97.39963","dillards.com","Friday 12:00 PM - 7:00 PM, Saturday 12:00 PM - 7:00 PM, Sunday 12:00 PM - 6:00 PM, Tuesday 12:00 PM - 7:00 PM, Wednesday 12:00 PM - 7:00 PM, Thursday 12:00 PM - 7:00 PM","<MISSING>","location_name:street_address"
"https://www.dillards.com/stores/kansas/towne-east-square-wichita/0330","Dillard's Towne East Square in Wichita, Kansas","7700 East Kellogg","Wichita","KS","67207","<MISSING>","0330","(316)685-0341","DepartmentStore","37.68478","-97.24831","dillards.com","Friday 11:00 AM - 8:00 PM, Saturday 11:00 AM - 8:00 PM, Sunday 12:00 PM - 6:00 PM, Monday 11:00 AM - 8:00 PM, Tuesday 11:00 AM - 8:00 PM, Wednesday 11:00 AM - 8:00 PM, Thursday 11:00 AM - 8:00 PM","<MISSING>","location_name:street_address"
"https://www.dillards.com/stores/kentucky/greenwood-mall-bowling-green/0385","Dillard's Greenwood Mall in Bowling Green, Kentucky","2625 Scottsville Rd","Bowling Green","KY","42104","<MISSING>","0385","(270)782-1111","DepartmentStore","36.9465","-86.4263","dillards.com","Friday 11:00 AM - 8:00 PM, Saturday 11:00 AM - 8:00 PM, Sunday 12:00 PM - 6:00 PM, Monday 11:00 AM - 8:00 PM, Tuesday 11:00 AM - 8:00 PM, Wednesday 11:00 AM - 8:00 PM, Thursday 11:00 AM - 8:00 PM","<MISSING>","location_name:street_address"
"https://www.dillards.com/stores/kentucky/crestview-hills-town-center-crestview-hills/0355","Dillard's Crestview Hills Town Center in Crestview Hills, Kentucky","2900 Town Center Blvd","Crestview Hills","KY","41017","<MISSING>","0355","(859)344-2795","DepartmentStore","39.02643","-84.57823","dillards.com","Friday 11:00 AM - 8:00 PM, Saturday 11:00 AM - 8:00 PM, Sunday 12:00 PM - 6:00 PM, Monday 11:00 AM - 8:00 PM, Tuesday 11:00 AM - 8:00 PM, Wednesday 11:00 AM - 8:00 PM, Thursday 11:00 AM - 8:00 PM","<MISSING>","location_name:street_address"
"https://www.dillards.com/stores/kentucky/fayette-mall-lexington/0387","Dillard's Fayette Mall in Lexington, Kentucky","3625 Nicholasville Rd","Lexington","KY","40503","<MISSING>","0387","(859)271-9797","DepartmentStore","37.98623","-84.52776","dillards.com","Friday 11:00 AM - 8:00 PM, Saturday 11:00 AM - 8:00 PM, Sunday 12:00 PM - 6:00 PM, Monday 11:00 AM - 8:00 PM, Tuesday 11:00 AM - 8:00 PM, Wednesday 11:00 AM - 8:00 PM, Thursday 11:00 AM - 8:00 PM","<MISSING>","location_name:street_address"
"https://www.dillards.com/stores/kentucky/mall-st-matthews-louisville/0391","Dillard's Mall St Matthews in Louisville, Kentucky","5000 Shelbyville Rd","Louisville","KY","40207","<MISSING>","0391","(502)893-4400","DepartmentStore","38.24776","-85.62541","dillards.com","Friday 11:00 AM - 8:00 PM, Saturday 11:00 AM - 8:00 PM, Sunday 12:00 PM - 6:00 PM, Monday 11:00 AM - 8:00 PM, Tuesday 11:00 AM - 8:00 PM, Wednesday 11:00 AM - 8:00 PM, Thursday 11:00 AM - 8:00 PM","<MISSING>","location_name:street_address"
"https://www.dillards.com/stores/kentucky/jefferson-mall-louisville/0396","Dillard's Jefferson Mall in Louisville, Kentucky","4801 Outer Loop","Louisville","KY","40219","<MISSING>","0396","(502)968-6080","DepartmentStore","38.14036","-85.67171","dillards.com","Friday 11:00 AM - 8:00 PM, Saturday 11:00 AM - 8:00 PM, Sunday 12:00 PM - 6:00 PM, Monday 11:00 AM - 8:00 PM, Tuesday 11:00 AM - 8:00 PM, Wednesday 11:00 AM - 8:00 PM, Thursday 11:00 AM - 8:00 PM","<MISSING>","location_name:street_address"
"https://www.dillards.com/stores/kentucky/kentucky-oaks-mall-paducah/0384","Dillard's Kentucky Oaks Mall in Paducah, Kentucky","5101 Hinkleville Rd","Paducah","KY","42001","<MISSING>","0384","(270)442-3200","DepartmentStore","37.0783","-88.68835","dillards.com","Friday 11:00 AM - 8:00 PM, Saturday 11:00 AM - 8:00 PM, Sunday 12:00 PM - 6:00 PM, Monday 11:00 AM - 8:00 PM, Tuesday 11:00 AM - 8:00 PM, Wednesday 11:00 AM - 8:00 PM, Thursday 11:00 AM - 8:00 PM","<MISSING>","location_name:street_address"
"https://www.dillards.com/stores/louisiana/alexandria-mall-alexandria/0436","Dillard's Alexandria Mall in Alexandria, Louisiana","3437 Masonic Dr","Alexandria","LA","71301","<MISSING>","0436","(318)445-9992","DepartmentStore","31.27481","-92.46016","dillards.com","Friday 11:00 AM - 8:00 PM, Saturday 11:00 AM - 8:00 PM, Sunday 12:00 PM - 6:00 PM, Monday 11:00 AM - 8:00 PM, Tuesday 11:00 AM - 8:00 PM, Wednesday 11:00 AM - 8:00 PM, Thursday 11:00 AM - 8:00 PM","<MISSING>","location_name:street_address"
"https://www.dillards.com/stores/louisiana/mall-of-louisiana-baton-rouge/0768","Dillard's Mall Of Louisiana in Baton Rouge, Louisiana","6601 Bluebonnet Blvd","Baton Rouge","LA","70836","<MISSING>","0768","(225)761-7293","DepartmentStore","30.38895","-91.0903","dillards.com","Friday 11:00 AM - 8:00 PM, Saturday 11:00 AM - 8:00 PM, Sunday 12:00 PM - 6:00 PM, Monday 11:00 AM - 8:00 PM, Tuesday 11:00 AM - 8:00 PM, Wednesday 11:00 AM - 8:00 PM, Thursday 11:00 AM - 8:00 PM","<MISSING>","location_name:street_address"
"https://www.dillards.com/stores/louisiana/pierre-bossier-mall-bossier-city/0433","Dillard's Pierre Bossier Mall in Bossier City, Louisiana","2950 E Texas St #670","Bossier City","LA","71111","<MISSING>","0433","(318)747-5610","DepartmentStore","32.52733","-93.70598","dillards.com","Friday 11:00 AM - 8:00 PM, Saturday 11:00 AM - 8:00 PM, Sunday 12:00 PM - 6:00 PM, Monday 11:00 AM - 8:00 PM, Tuesday 11:00 AM - 8:00 PM, Wednesday 11:00 AM - 8:00 PM, Thursday 11:00 AM - 8:00 PM","<MISSING>","location_name:street_address"
"https://www.dillards.com/stores/louisiana/oakwood-center-gretna/0762","Dillard's Oakwood Center in Gretna, Louisiana","197 West Bank Expressway","Gretna","LA","70053","<MISSING>","0762","(504)362-4800","DepartmentStore","29.92155","-90.0367","dillards.com","Friday 11:00 AM - 8:00 PM, Saturday 11:00 AM - 8:00 PM, Sunday 12:00 PM - 6:00 PM, Monday 11:00 AM - 8:00 PM, Tuesday 11:00 AM - 8:00 PM, Wednesday 11:00 AM - 8:00 PM, Thursday 11:00 AM - 8:00 PM","<MISSING>","location_name:street_address"
"https://www.dillards.com/stores/louisiana/hammond-square-hammond/0764","Dillard's Hammond Square in Hammond, Louisiana","1990 Hammond Square Dr","Hammond","LA","70403","<MISSING>","0764","(985)345-7121","DepartmentStore","30.47406","-90.4581","dillards.com","Friday 11:00 AM - 8:00 PM, Saturday 11:00 AM - 8:00 PM, Sunday 12:00 PM - 6:00 PM, Monday 11:00 AM - 8:00 PM, Tuesday 11:00 AM - 8:00 PM, Wednesday 11:00 AM - 8:00 PM, Thursday 11:00 AM - 8:00 PM","<MISSING>","location_name:street_address"
"https://www.dillards.com/stores/louisiana/southland-mall-houma/0765","Dillard's Southland Mall in Houma, Louisiana","5953 W Park Ave #1000","Houma","LA","70364","<MISSING>","0765","(985)873-6100","DepartmentStore","29.65161","-90.75773","dillards.com","Friday 11:00 AM - 8:00 PM, Saturday 11:00 AM - 8:00 PM, Sunday 12:00 PM - 6:00 PM, Monday 11:00 AM - 8:00 PM, Tuesday 11:00 AM - 8:00 PM, Wednesday 11:00 AM - 8:00 PM, Thursday 11:00 AM - 8:00 PM","<MISSING>","location_name:street_address"
"https://www.dillards.com/stores/louisiana/the-esplanade-kenner/0532","Dillard's The Esplanade in Kenner, Louisiana","1401 W Esplanade Ave","Kenner","LA","70065","<MISSING>","0532","(504)468-6050","DepartmentStore","30.01508","-90.25018","dillards.com","Friday 12:00 PM - 7:00 PM, Saturday 12:00 PM - 7:00 PM, Sunday 12:00 PM - 6:00 PM, Tuesday 12:00 PM - 7:00 PM, Wednesday 12:00 PM - 7:00 PM, Thursday 12:00 PM - 7:00 PM","<MISSING>","location_name:street_address"
"https://www.dillards.com/stores/louisiana/acadiana-mall-lafayette/0766","Dillard's Acadiana Mall in Lafayette, Louisiana","5725 Johnston Road","Lafayette","LA","70503","<MISSING>","0766","(337)989-8139","DepartmentStore","30.17058","-92.07426","dillards.com","Friday 11:00 AM - 8:00 PM, Saturday 11:00 AM - 8:00 PM, Sunday 12:00 PM - 6:00 PM, Monday 11:00 AM - 8:00 PM, Tuesday 11:00 AM - 8:00 PM, Wednesday 11:00 AM - 8:00 PM, Thursday 11:00 AM - 8:00 PM","<MISSING>","location_name:street_address"
"https://www.dillards.com/stores/louisiana/prien-lake-mall-lake-charles/0767","Dillard's Prien Lake Mall in Lake Charles, Louisiana","684 W Prien Lake Rd","Lake Charles","LA","70601","<MISSING>","0767","(337)474-9533","DepartmentStore","30.1994","-93.22873","dillards.com","Friday 11:00 AM - 8:00 PM, Saturday 11:00 AM - 8:00 PM, Sunday 12:00 PM - 6:00 PM, Monday 11:00 AM - 8:00 PM, Tuesday 11:00 AM - 8:00 PM, Wednesday 11:00 AM - 8:00 PM, Thursday 11:00 AM - 8:00 PM","<MISSING>","location_name:street_address"
"https://www.dillards.com/stores/louisiana/lakeside-shopping-center-metairie/0760","Dillard's Lakeside Shopping Center in Metairie, Louisiana","3301 Veterans Memorial Blvd #1","Metairie","LA","70002","<MISSING>","0760","(504)833-1075","DepartmentStore","30.00765","-90.15723","dillards.com","Friday 11:00 AM - 8:00 PM, Saturday 11:00 AM - 8:00 PM, Sunday 12:00 PM - 6:00 PM, Monday 11:00 AM - 8:00 PM, Tuesday 11:00 AM - 8:00 PM, Wednesday 11:00 AM - 8:00 PM, Thursday 11:00 AM - 8:00 PM","<MISSING>","location_name:street_address"
"https://www.dillards.com/stores/louisiana/pecanland-mall-monroe/0435","Dillard's Pecanland Mall in Monroe, Louisiana","4610 Millhaven Rd","Monroe","LA","71203","<MISSING>","0435","(318)323-8000","DepartmentStore","32.49906","-92.06208","dillards.com","Friday 11:00 AM - 8:00 PM, Saturday 11:00 AM - 8:00 PM, Sunday 12:00 PM - 6:00 PM, Monday 11:00 AM - 8:00 PM, Tuesday 11:00 AM - 8:00 PM, Wednesday 11:00 AM - 8:00 PM, Thursday 11:00 AM - 8:00 PM","<MISSING>","location_name:street_address"
"https://www.dillards.com/stores/louisiana/mall-st-vincent-shreveport/0432","Dillard's Mall St Vincent in Shreveport, Louisiana","1133 St Vincent Ave","Shreveport","LA","71104","<MISSING>","0432","(318)226-9565","DepartmentStore","32.47906","-93.75308","dillards.com","Friday 11:00 AM - 8:00 PM, Saturday 11:00 AM - 8:00 PM, Sunday 12:00 PM - 6:00 PM, Monday 11:00 AM - 8:00 PM, Tuesday 11:00 AM - 8:00 PM, Wednesday 11:00 AM - 8:00 PM, Thursday 11:00 AM - 8:00 PM","<MISSING>","location_name:street_address"
"https://www.dillards.com/stores/louisiana/north-shore-square-slidell/0533","Dillard's North Shore Square in Slidell, Louisiana","150 North Shore Blvd Suite 2000","Slidell","LA","70460","<MISSING>","0533","(985)646-0130","DepartmentStore","30.3074","-89.82225","dillards.com","Friday 12:00 PM - 7:00 PM, Saturday 12:00 PM - 7:00 PM, Sunday 12:00 PM - 6:00 PM, Tuesday 12:00 PM - 7:00 PM, Wednesday 12:00 PM - 7:00 PM, Thursday 12:00 PM - 7:00 PM","<MISSING>","location_name:street_address"
"https://www.dillards.com/stores/louisiana/fremaux-town-center-slidell/0761","Dillard's Fremaux Town Center in Slidell, Louisiana","940 Town Center Pkwy","Slidell","LA","70458","<MISSING>","0761","(985)288-6126","DepartmentStore","30.2667","-89.7625","dillards.com","Friday 11:00 AM - 8:00 PM, Saturday 11:00 AM - 8:00 PM, Sunday 12:00 PM - 6:00 PM, Monday 11:00 AM - 8:00 PM, Tuesday 11:00 AM - 8:00 PM, Wednesday 11:00 AM - 8:00 PM, Thursday 11:00 AM - 8:00 PM","<MISSING>","location_name:street_address"
"https://www.dillards.com/stores/mississippi/edgewater-mall-biloxi/0758","Dillard's Edgewater Mall in Biloxi, Mississippi","2600 Beach Blvd ste 1","Biloxi","MS","39531","<MISSING>","0758","(228)385-3834","DepartmentStore","30.39045","-88.99016","dillards.com","Friday 11:00 AM - 8:00 PM, Saturday 11:00 AM - 8:00 PM, Sunday 12:00 PM - 6:00 PM, Monday 11:00 AM - 8:00 PM, Tuesday 11:00 AM - 8:00 PM, Wednesday 11:00 AM - 8:00 PM, Thursday 11:00 AM - 8:00 PM","<MISSING>","location_name:street_address"
"https://www.dillards.com/stores/mississippi/turtle-creek-mall-hattiesburg/0759","Dillard's Turtle Creek Mall in Hattiesburg, Mississippi","1000 Turtle Creek Dr","Hattiesburg","MS","39402","<MISSING>","0759","(601)268-6700","DepartmentStore","31.32456","-89.37523","dillards.com","Friday 11:00 AM - 8:00 PM, Saturday 11:00 AM - 8:00 PM, Sunday 12:00 PM - 6:00 PM, Monday 11:00 AM - 8:00 PM, Tuesday 11:00 AM - 8:00 PM, Wednesday 11:00 AM - 8:00 PM, Thursday 11:00 AM - 8:00 PM","<MISSING>","location_name:street_address"
"https://www.dillards.com/stores/mississippi/uptown-meridian-meridian/0415","Dillard's Uptown Meridian in Meridian, Mississippi","1078 Bonita Lakes Dr","Meridian","MS","39301","<MISSING>","0415","(601)482-8929","DepartmentStore","32.35945","-88.67328","dillards.com","Friday 11:00 AM - 8:00 PM, Saturday 11:00 AM - 8:00 PM, Sunday 12:00 PM - 6:00 PM, Monday 11:00 AM - 8:00 PM, Tuesday 11:00 AM - 8:00 PM, Wednesday 11:00 AM - 8:00 PM, Thursday 11:00 AM - 8:00 PM","<MISSING>","location_name:street_address"
"https://www.dillards.com/stores/mississippi/north-park-ridgeland/0419","Dillard's North Park in Ridgeland, Mississippi","1200 E County Line Rd","Ridgeland","MS","39157","<MISSING>","0419","(601)957-7100","DepartmentStore","32.40285","-90.1307","dillards.com","Friday 11:00 AM - 8:00 PM, Saturday 11:00 AM - 8:00 PM, Sunday 12:00 PM - 6:00 PM, Monday 11:00 AM - 8:00 PM, Tuesday 11:00 AM - 8:00 PM, Wednesday 11:00 AM - 8:00 PM, Thursday 11:00 AM - 8:00 PM","<MISSING>","location_name:street_address"
"https://www.dillards.com/stores/mississippi/southaven-towne-center-southaven/0412","Dillard's Southaven Towne Center in Southaven, Mississippi","230 Towne Center Loop","Southaven","MS","38671","<MISSING>","0412","(662)536-4786","DepartmentStore","34.9534","-89.9945","dillards.com","Friday 11:00 AM - 8:00 PM, Saturday 11:00 AM - 8:00 PM, Sunday 12:00 PM - 6:00 PM, Monday 11:00 AM - 8:00 PM, Tuesday 11:00 AM - 8:00 PM, Wednesday 11:00 AM - 8:00 PM, Thursday 11:00 AM - 8:00 PM","<MISSING>","location_name:street_address"
"https://www.dillards.com/stores/mississippi/pemberton-square-vicksburg/0534","Dillard's Pemberton Square in Vicksburg, Mississippi","3505 Pemberton Square Blvd","Vicksburg","MS","39180","<MISSING>","0534","(601)638-8853","DepartmentStore","32.30725","-90.88473","dillards.com","Friday 12:00 PM - 7:00 PM, Saturday 12:00 PM - 7:00 PM, Sunday 12:00 PM - 6:00 PM, Tuesday 12:00 PM - 7:00 PM, Wednesday 12:00 PM - 7:00 PM, Thursday 12:00 PM - 7:00 PM","<MISSING>","location_name:street_address"
"https://www.dillards.com/stores/missouri/columbia-mall-columbia/0312","Dillard's Columbia Mall in Columbia, Missouri","2300 Bernadette Dr","Columbia","MO","65203","<MISSING>","0312","(573)876-8600","DepartmentStore","38.96515","-92.37345","dillards.com","Friday 11:00 AM - 8:00 PM, Saturday 11:00 AM - 8:00 PM, Sunday 12:00 PM - 6:00 PM, Monday 11:00 AM - 8:00 PM, Tuesday 11:00 AM - 8:00 PM, Wednesday 11:00 AM - 8:00 PM, Thursday 11:00 AM - 8:00 PM","<MISSING>","location_name:street_address"
"https://www.dillards.com/stores/missouri/independence-center-independence/0323","Dillard's Independence Center in Independence, Missouri","18805 East 39th St S","Independence","MO","64057","<MISSING>","0323","(816)795-1818","DepartmentStore","39.04558","-94.35873","dillards.com","Friday 11:00 AM - 8:00 PM, Saturday 11:00 AM - 8:00 PM, Sunday 12:00 PM - 6:00 PM, Monday 11:00 AM - 8:00 PM, Tuesday 11:00 AM - 8:00 PM, Wednesday 11:00 AM - 8:00 PM, Thursday 11:00 AM - 8:00 PM","<MISSING>","location_name:street_address"
"https://www.dillards.com/stores/missouri/capital-mall-jefferson-city/0520","Dillard's Capital Mall in Jefferson City, Missouri","3600 Country Club Drive","Jefferson City","MO","65109","<MISSING>","0520","(573)893-4497","DepartmentStore","38.58638","-92.2508","dillards.com","Friday 12:00 PM - 7:00 PM, Saturday 12:00 PM - 7:00 PM, Sunday 12:00 PM - 6:00 PM, Tuesday 12:00 PM - 7:00 PM, Wednesday 12:00 PM - 7:00 PM, Thursday 12:00 PM - 7:00 PM","<MISSING>","location_name:street_address"
"https://www.dillards.com/stores/missouri/zona-rosa-town-center-kansas-city/0324","Dillard's Zona Rosa Town Center in Kansas City, Missouri","7350 NW 87th Terrace","Kansas City","MO","64153","<MISSING>","0324","(816)741-0707","DepartmentStore","39.25388","-94.65476","dillards.com","Friday 11:00 AM - 8:00 PM, Saturday 11:00 AM - 8:00 PM, Sunday 12:00 PM - 6:00 PM, Monday 11:00 AM - 8:00 PM, Tuesday 11:00 AM - 8:00 PM, Wednesday 11:00 AM - 8:00 PM, Thursday 11:00 AM - 8:00 PM","<MISSING>","location_name:street_address"
"https://www.dillards.com/stores/missouri/battlefield-mall-springfield/0314","Dillard's Battlefield Mall in Springfield, Missouri","2825 South Glenstone Avenue #400","Springfield","MO","65804","<MISSING>","0314","(417)883-4550","DepartmentStore","37.16076","-93.26405","dillards.com","Friday 11:00 AM - 8:00 PM, Saturday 11:00 AM - 8:00 PM, Sunday 12:00 PM - 6:00 PM, Monday 11:00 AM - 8:00 PM, Tuesday 11:00 AM - 8:00 PM, Wednesday 11:00 AM - 8:00 PM, Thursday 11:00 AM - 8:00 PM","<MISSING>","location_name:street_address"
"https://www.dillards.com/stores/missouri/east-hills-mall-st.-joseph/0521","Dillard's East Hills Mall in St. Joseph, Missouri","3702 Frederick Ave","St. Joseph","MO","64506","<MISSING>","0521","(816)232-7666","DepartmentStore","39.77263","-94.79855","dillards.com","Friday 12:00 PM - 7:00 PM, Saturday 12:00 PM - 7:00 PM, Sunday 12:00 PM - 6:00 PM, Monday 12:00 PM - 7:00 PM, Tuesday 12:00 PM - 7:00 PM, Wednesday 12:00 PM - 7:00 PM, Thursday 12:00 PM - 7:00 PM","<MISSING>","location_name:street_address"
"https://www.dillards.com/stores/missouri/saint-louis-galleria-st.-louis/0301","Dillard's Saint Louis Galleria in St. Louis, Missouri","1105 St Louis Galleria St","St. Louis","MO","63117","<MISSING>","0301","(314)725-8363","DepartmentStore","38.63743","-90.3474","dillards.com","Friday 11:00 AM - 8:00 PM, Saturday 11:00 AM - 8:00 PM, Sunday 12:00 PM - 6:00 PM, Monday 11:00 AM - 8:00 PM, Tuesday 11:00 AM - 8:00 PM, Wednesday 11:00 AM - 8:00 PM, Thursday 11:00 AM - 8:00 PM","<MISSING>","location_name:street_address"
"https://www.dillards.com/stores/missouri/south-county-center-st.-louis/0305","Dillard's South County Center in St. Louis, Missouri","220 S County Center Way","St. Louis","MO","63129","<MISSING>","0305","(314)487-1600","DepartmentStore","38.50511","-90.33201","dillards.com","Friday 11:00 AM - 8:00 PM, Saturday 11:00 AM - 8:00 PM, Sunday 12:00 PM - 6:00 PM, Monday 11:00 AM - 8:00 PM, Tuesday 11:00 AM - 8:00 PM, Wednesday 11:00 AM - 8:00 PM, Thursday 11:00 AM - 8:00 PM","<MISSING>","location_name:street_address"
"https://www.dillards.com/stores/missouri/mid-rivers-mall-st.-peters/0309","Dillard's Mid Rivers Mall in St. Peters, Missouri","2 Mid Rivers Mall Dr","St. Peters","MO","63376","<MISSING>","0309","(636)970-2555","DepartmentStore","38.7946","-90.6181","dillards.com","Friday 11:00 AM - 8:00 PM, Saturday 11:00 AM - 8:00 PM, Sunday 12:00 PM - 6:00 PM, Monday 11:00 AM - 8:00 PM, Tuesday 11:00 AM - 8:00 PM, Wednesday 11:00 AM - 8:00 PM, Thursday 11:00 AM - 8:00 PM","<MISSING>","location_name:street_address"
"https://www.dillards.com/stores/montana/rimrock-mall-billings/0939","Dillard's Rimrock Mall in Billings, Montana","320 S 24th St W","Billings","MT","59102","<MISSING>","0939","(406)656-0100","DepartmentStore","45.76535","-108.5773","dillards.com","Friday 11:00 AM - 8:00 PM, Saturday 11:00 AM - 8:00 PM, Sunday 12:00 PM - 6:00 PM, Monday 11:00 AM - 8:00 PM, Tuesday 11:00 AM - 8:00 PM, Wednesday 11:00 AM - 8:00 PM, Thursday 11:00 AM - 8:00 PM","<MISSING>","location_name:street_address"
"https://www.dillards.com/stores/montana/southgate-mall-missoula/0937","Dillard's Southgate Mall in Missoula, Montana","2901 Brooks St","Missoula","MT","59801","<MISSING>","0937","(406)721-3100","DepartmentStore","46.84583","-114.0273","dillards.com","Friday 11:00 AM - 8:00 PM, Saturday 11:00 AM - 8:00 PM, Sunday 12:00 PM - 6:00 PM, Monday 11:00 AM - 8:00 PM, Tuesday 11:00 AM - 8:00 PM, Wednesday 11:00 AM - 8:00 PM, Thursday 11:00 AM - 8:00 PM","<MISSING>","location_name:street_address"
"https://www.dillards.com/stores/nebraska/conestoga-mall-grand-island/0345","Dillard's Conestoga Mall in Grand Island, Nebraska","3404 W 13th St #100","Grand Island","NE","68803","<MISSING>","0345","(308)384-5200","DepartmentStore","40.93255","-98.38176","dillards.com","Friday 11:00 AM - 8:00 PM, Saturday 11:00 AM - 8:00 PM, Sunday 12:00 PM - 6:00 PM, Monday 11:00 AM - 8:00 PM, Tuesday 11:00 AM - 8:00 PM, Wednesday 11:00 AM - 8:00 PM, Thursday 11:00 AM - 8:00 PM","<MISSING>","location_name:street_address"
"https://www.dillards.com/stores/nebraska/gateway-mall-lincoln/0344","Dillard's Gateway Mall in Lincoln, Nebraska","6100 E O St","Lincoln","NE","68505","<MISSING>","0344","(402)464-7451","DepartmentStore","40.81703","-96.63818","dillards.com","Friday 11:00 AM - 8:00 PM, Saturday 11:00 AM - 8:00 PM, Sunday 12:00 PM - 6:00 PM, Monday 11:00 AM - 8:00 PM, Tuesday 11:00 AM - 8:00 PM, Wednesday 11:00 AM - 8:00 PM, Thursday 11:00 AM - 8:00 PM","<MISSING>","location_name:street_address"
"https://www.dillards.com/stores/nebraska/oak-view-mall-omaha/0343","Dillard's Oak View Mall in Omaha, Nebraska","3030 Oak View Dr","Omaha","NE","68144","<MISSING>","0343","(402)697-1323","DepartmentStore","41.23076","-96.1334","dillards.com","Friday 11:00 AM - 8:00 PM, Saturday 11:00 AM - 8:00 PM, Sunday 12:00 PM - 6:00 PM, Monday 11:00 AM - 8:00 PM, Tuesday 11:00 AM - 8:00 PM, Wednesday 11:00 AM - 8:00 PM, Thursday 11:00 AM - 8:00 PM","<MISSING>","location_name:street_address"
"https://www.dillards.com/stores/nevada/galleria-at-sunset-henderson/0944","Dillard's Galleria At Sunset in Henderson, Nevada","1320 W Sunset Rd","Henderson","NV","89014","<MISSING>","0944","(702)435-6300","DepartmentStore","36.06835","-115.0447","dillards.com","Friday 11:00 AM - 8:00 PM, Saturday 11:00 AM - 8:00 PM, Sunday 12:00 PM - 6:00 PM, Monday 11:00 AM - 8:00 PM, Tuesday 11:00 AM - 8:00 PM, Wednesday 11:00 AM - 8:00 PM, Thursday 11:00 AM - 8:00 PM","<MISSING>","location_name:street_address"
"https://www.dillards.com/stores/nevada/meadows-mall-las-vegas/0503","Dillard's Meadows Mall in Las Vegas, Nevada","4200 Meadows Ln","Las Vegas","NV","89107","<MISSING>","0503","(702)870-2039","DepartmentStore","36.1714","-115.1962","dillards.com","Friday 12:00 PM - 7:00 PM, Saturday 12:00 PM - 7:00 PM, Sunday 12:00 PM - 6:00 PM, Tuesday 12:00 PM - 7:00 PM, Wednesday 12:00 PM - 7:00 PM, Thursday 12:00 PM - 7:00 PM","<MISSING>","location_name:street_address"
"https://www.dillards.com/stores/nevada/fashion-show-las-vegas-las-vegas/0941","Dillard's Fashion Show Las Vegas in Las Vegas, Nevada","3200 S Las Vegas Blvd","Las Vegas","NV","89109","<MISSING>","0941","(702)733-2008","DepartmentStore","36.1277","-115.17488","dillards.com","Friday 11:00 AM - 8:00 PM, Saturday 11:00 AM - 8:00 PM, Sunday 12:00 PM - 6:00 PM, Monday 11:00 AM - 8:00 PM, Tuesday 11:00 AM - 8:00 PM, Wednesday 11:00 AM - 8:00 PM, Thursday 11:00 AM - 8:00 PM","<MISSING>","location_name:street_address"
"https://www.dillards.com/stores/nevada/downtown-summerlin-las-vegas/0945","Dillard's Downtown Summerlin in Las Vegas, Nevada","11011 Sage Park Dr","Las Vegas","NV","89135","<MISSING>","0945","(702)473-6712","DepartmentStore","36.1482","-115.33358","dillards.com","Friday 11:00 AM - 8:00 PM, Saturday 11:00 AM - 8:00 PM, Sunday 12:00 PM - 6:00 PM, Monday 11:00 AM - 8:00 PM, Tuesday 11:00 AM - 8:00 PM, Wednesday 11:00 AM - 8:00 PM, Thursday 11:00 AM - 8:00 PM","<MISSING>","location_name:street_address"
"https://www.dillards.com/stores/nevada/the-summit-reno-reno/0949","Dillard's The Summit Reno in Reno, Nevada","13933 S Virginia St","Reno","NV","89511","<MISSING>","0949","(775)852-3080","DepartmentStore","39.40476","-119.75218","dillards.com","Friday 11:00 AM - 8:00 PM, Saturday 11:00 AM - 8:00 PM, Sunday 12:00 PM - 6:00 PM, Monday 11:00 AM - 8:00 PM, Tuesday 11:00 AM - 8:00 PM, Wednesday 11:00 AM - 8:00 PM, Thursday 11:00 AM - 8:00 PM","<MISSING>","location_name:street_address"
"https://www.dillards.com/stores/new-mexico/cottonwood-mall-albuquerque/0920","Dillard's Cottonwood Mall in Albuquerque, New Mexico","10000 Coors Bypass NW","Albuquerque","NM","87114","<MISSING>","0920","(505)898-2530","DepartmentStore","35.1964","-106.6559","dillards.com","Friday 11:00 AM - 8:00 PM, Saturday 11:00 AM - 8:00 PM, Sunday 12:00 PM - 6:00 PM, Monday 11:00 AM - 8:00 PM, Tuesday 11:00 AM - 8:00 PM, Wednesday 11:00 AM - 8:00 PM, Thursday 11:00 AM - 8:00 PM","<MISSING>","location_name:street_address"
"https://www.dillards.com/stores/new-mexico/winrock-town-center-albuquerque/0921","Dillard's Winrock Town Center in Albuquerque, New Mexico","2100 Louisiana Blvd NE #155","Albuquerque","NM","87110","<MISSING>","0921","(505)883-5900","DepartmentStore","35.10003","-106.5629","dillards.com","Friday 11:00 AM - 8:00 PM, Saturday 11:00 AM - 8:00 PM, Sunday 12:00 PM - 6:00 PM, Monday 11:00 AM - 8:00 PM, Tuesday 11:00 AM - 8:00 PM, Wednesday 11:00 AM - 8:00 PM, Thursday 11:00 AM - 8:00 PM","<MISSING>","location_name:street_address"
"https://www.dillards.com/stores/new-mexico/animas-valley-mall-farmington/0923","Dillard's Animas Valley Mall in Farmington, New Mexico","4601 E Main St","Farmington","NM","87402","<MISSING>","0923","(505)326-2681","DepartmentStore","36.76405","-108.1509","dillards.com","Friday 11:00 AM - 8:00 PM, Saturday 11:00 AM - 8:00 PM, Sunday 12:00 PM - 6:00 PM, Monday 11:00 AM - 8:00 PM, Tuesday 11:00 AM - 8:00 PM, Wednesday 11:00 AM - 8:00 PM, Thursday 11:00 AM - 8:00 PM","<MISSING>","location_name:street_address"
"https://www.dillards.com/stores/new-mexico/mesilla-valley-mall-las-cruces/0925","Dillard's Mesilla Valley Mall in Las Cruces, New Mexico","700 S Telshor Blvd","Las Cruces","NM","88011","<MISSING>","0925","(575)522-5400","DepartmentStore","32.30975","-106.7445","dillards.com","Friday 11:00 AM - 8:00 PM, Saturday 11:00 AM - 8:00 PM, Sunday 12:00 PM - 6:00 PM, Monday 11:00 AM - 8:00 PM, Tuesday 11:00 AM - 8:00 PM, Wednesday 11:00 AM - 8:00 PM, Thursday 11:00 AM - 8:00 PM","<MISSING>","location_name:street_address"
"https://www.dillards.com/stores/new-mexico/santa-fe-place-mall-santa-fe/0922","Dillard's Santa Fe Place Mall in Santa Fe, New Mexico","4250 Cerrillos Rd","Santa Fe","NM","87507","<MISSING>","0922","(505)473-2900","DepartmentStore","35.63733","-106.01568","dillards.com","Friday 11:00 AM - 8:00 PM, Saturday 11:00 AM - 8:00 PM, Sunday 12:00 PM - 6:00 PM, Monday 11:00 AM - 8:00 PM, Tuesday 11:00 AM - 8:00 PM, Wednesday 11:00 AM - 8:00 PM, Thursday 11:00 AM - 8:00 PM","<MISSING>","location_name:street_address"
"https://www.dillards.com/stores/north-carolina/asheville-outlets-asheville/0518","Dillard's Asheville Outlets in Asheville, North Carolina","800 Brevard Rd","Asheville","NC","28806","<MISSING>","0518","(828)665-4434","DepartmentStore","35.53085","-82.60373","dillards.com","Friday 12:00 PM - 7:00 PM, Saturday 12:00 PM - 7:00 PM, Sunday 12:00 PM - 6:00 PM, Monday 12:00 PM - 7:00 PM, Tuesday 12:00 PM - 7:00 PM, Wednesday 12:00 PM - 7:00 PM, Thursday 12:00 PM - 7:00 PM","<MISSING>","location_name:street_address"
"https://www.dillards.com/stores/north-carolina/asheville-mall-asheville/0148","Dillard's Asheville Mall in Asheville, North Carolina","#3 S Tunnel Rd","Asheville","NC","28805","<MISSING>","0148","(828)298-2611","DepartmentStore","35.58065","-82.5273","dillards.com","Friday 11:00 AM - 8:00 PM, Saturday 11:00 AM - 8:00 PM, Sunday 12:00 PM - 6:00 PM, Monday 11:00 AM - 8:00 PM, Tuesday 11:00 AM - 8:00 PM, Wednesday 11:00 AM - 8:00 PM, Thursday 11:00 AM - 8:00 PM","<MISSING>","location_name:street_address"
"https://www.dillards.com/stores/north-carolina/alamance-crossing-burlington/0143","Dillard's Alamance Crossing in Burlington, North Carolina","1003 Boston Dr","Burlington","NC","27215","<MISSING>","0143","(336)538-6498","DepartmentStore","36.07048","-79.50963","dillards.com","Friday 11:00 AM - 8:00 PM, Saturday 11:00 AM - 8:00 PM, Sunday 12:00 PM - 6:00 PM, Monday 11:00 AM - 8:00 PM, Tuesday 11:00 AM - 8:00 PM, Wednesday 11:00 AM - 8:00 PM, Thursday 11:00 AM - 8:00 PM","<MISSING>","location_name:street_address"
"https://www.dillards.com/stores/north-carolina/southpark-mall-charlotte/0150","Dillard's Southpark Mall in Charlotte, North Carolina","4400 Sharon Rd","Charlotte","NC","28211","<MISSING>","0150","(704)365-3111","DepartmentStore","35.15343","-80.83058","dillards.com","Friday 11:00 AM - 8:00 PM, Saturday 11:00 AM - 8:00 PM, Sunday 12:00 PM - 6:00 PM, Monday 11:00 AM - 8:00 PM, Tuesday 11:00 AM - 8:00 PM, Wednesday 11:00 AM - 8:00 PM, Thursday 11:00 AM - 8:00 PM","<MISSING>","location_name:street_address"
"https://www.dillards.com/stores/north-carolina/northlake-mall-charlotte/0153","Dillard's Northlake Mall in Charlotte, North Carolina","7535 Northlake Mall Dr","Charlotte","NC","28216","<MISSING>","0153","(704)716-1150","DepartmentStore","35.3527","-80.85331","dillards.com","Friday 11:00 AM - 8:00 PM, Saturday 11:00 AM - 8:00 PM, Sunday 12:00 PM - 6:00 PM, Monday 11:00 AM - 8:00 PM, Tuesday 11:00 AM - 8:00 PM, Wednesday 11:00 AM - 8:00 PM, Thursday 11:00 AM - 8:00 PM","<MISSING>","location_name:street_address"
"https://www.dillards.com/stores/north-carolina/eastridge-mall-gastonia/0519","Dillard's Eastridge Mall in Gastonia, North Carolina","250 N New Hope Rd","Gastonia","NC","28054","<MISSING>","0519","(704)864-8361","DepartmentStore","35.26478","-81.14926","dillards.com","Friday 12:00 PM - 7:00 PM, Saturday 12:00 PM - 7:00 PM, Sunday 12:00 PM - 6:00 PM, Tuesday 12:00 PM - 7:00 PM, Wednesday 12:00 PM - 7:00 PM, Thursday 12:00 PM - 7:00 PM","<MISSING>","location_name:street_address"
"https://www.dillards.com/stores/north-carolina/four-seasons-towne-center-greensboro/0144","Dillard's Four Seasons Towne Center in Greensboro, North Carolina","150 4 Seasons Town Center Ent","Greensboro","NC","27407","<MISSING>","0144","(336)855-5511","DepartmentStore","36.04085","-79.83818","dillards.com","Friday 11:00 AM - 8:00 PM, Saturday 11:00 AM - 8:00 PM, Sunday 12:00 PM - 6:00 PM, Monday 11:00 AM - 8:00 PM, Tuesday 11:00 AM - 8:00 PM, Wednesday 11:00 AM - 8:00 PM, Thursday 11:00 AM - 8:00 PM","<MISSING>","location_name:street_address"
"https://www.dillards.com/stores/north-carolina/valley-hills-mall-hickory/0146","Dillard's Valley Hills Mall in Hickory, North Carolina","1930 US Hwy 70 SE","Hickory","NC","28602","<MISSING>","0146","(828)327-2656","DepartmentStore","35.70233","-81.30653","dillards.com","Friday 11:00 AM - 8:00 PM, Saturday 11:00 AM - 8:00 PM, Sunday 12:00 PM - 6:00 PM, Monday 11:00 AM - 8:00 PM, Tuesday 11:00 AM - 8:00 PM, Wednesday 11:00 AM - 8:00 PM, Thursday 11:00 AM - 8:00 PM","<MISSING>","location_name:street_address"
"https://www.dillards.com/stores/north-carolina/oak-hollow-mall-high-point/0517","Dillard's Oak Hollow Mall in High Point, North Carolina","921 Eastchester Dr #1001","High Point","NC","27262","<MISSING>","0517","(336)812-9090","DepartmentStore","35.99061","-80.00801","dillards.com","Friday 12:00 PM - 7:00 PM, Saturday 12:00 PM - 7:00 PM, Sunday 12:00 PM - 6:00 PM, Tuesday 12:00 PM - 7:00 PM, Wednesday 12:00 PM - 7:00 PM, Thursday 12:00 PM - 7:00 PM","<MISSING>","location_name:street_address"
"https://www.dillards.com/stores/north-carolina/carolina-place-pineville/0151","Dillard's Carolina Place in Pineville, North Carolina","11041 Carolina Pl Pkwy","Pineville","NC","28134","<MISSING>","0151","(704)544-0113","DepartmentStore","35.13451","-80.87943","dillards.com","Friday 11:00 AM - 8:00 PM, Saturday 11:00 AM - 8:00 PM, Sunday 12:00 PM - 6:00 PM, Monday 11:00 AM - 8:00 PM, Tuesday 11:00 AM - 8:00 PM, Wednesday 11:00 AM - 8:00 PM, Thursday 11:00 AM - 8:00 PM","<MISSING>","location_name:street_address"
"https://www.dillards.com/stores/north-carolina/triangle-town-center-raleigh/0140","Dillard's Triangle Town Center in Raleigh, North Carolina","3501 Sumner Blvd","Raleigh","NC","27616","<MISSING>","0140","(919)792-2900","DepartmentStore","35.86558","-78.57845","dillards.com","Friday 11:00 AM - 8:00 PM, Saturday 11:00 AM - 8:00 PM, Sunday 12:00 PM - 6:00 PM, Monday 11:00 AM - 8:00 PM, Tuesday 11:00 AM - 8:00 PM, Wednesday 11:00 AM - 8:00 PM, Thursday 11:00 AM - 8:00 PM","<MISSING>","location_name:street_address"
"https://www.dillards.com/stores/north-carolina/independence-mall-wilmington/0156","Dillard's Independence Mall in Wilmington, North Carolina","3500 Oleander Dr","Wilmington","NC","28403","<MISSING>","0156","(910)796-0187","DepartmentStore","34.21083","-77.90635","dillards.com","Friday 11:00 AM - 8:00 PM, Saturday 11:00 AM - 8:00 PM, Sunday 12:00 PM - 6:00 PM, Monday 11:00 AM - 8:00 PM, Tuesday 11:00 AM - 8:00 PM, Wednesday 11:00 AM - 8:00 PM, Thursday 11:00 AM - 8:00 PM","<MISSING>","location_name:street_address"
"https://www.dillards.com/stores/north-carolina/hanes-mall-winston-salem/0145","Dillard's Hanes Mall in Winston-Salem, North Carolina","3320 Silas Creek Pkwy #3500","Winston-Salem","NC","27103","<MISSING>","0145","(336)659-1515","DepartmentStore","36.06843","-80.30216","dillards.com","Friday 11:00 AM - 8:00 PM, Saturday 11:00 AM - 8:00 PM, Sunday 12:00 PM - 6:00 PM, Monday 11:00 AM - 8:00 PM, Tuesday 11:00 AM - 8:00 PM, Wednesday 11:00 AM - 8:00 PM, Thursday 11:00 AM - 8:00 PM","<MISSING>","location_name:street_address"
"https://www.dillards.com/stores/ohio/summit-mall-akron/0371","Dillard's Summit Mall in Akron, Ohio","3265 W Market St","Akron","OH","44333","<MISSING>","0371","(330)867-3300","DepartmentStore","41.13556","-81.61713","dillards.com","Friday 11:00 AM - 8:00 PM, Saturday 11:00 AM - 8:00 PM, Sunday 12:00 PM - 6:00 PM, Monday 11:00 AM - 8:00 PM, Tuesday 11:00 AM - 8:00 PM, Wednesday 11:00 AM - 8:00 PM, Thursday 11:00 AM - 8:00 PM","<MISSING>","location_name:street_address"
"https://www.dillards.com/stores/ohio/beachwood-place-beachwood/0365","Dillard's Beachwood Place in Beachwood, Ohio","26500 Cedar Rd","Beachwood","OH","44122","<MISSING>","0365","(216)464-6000","DepartmentStore","41.49883","-81.49256","dillards.com","Friday 11:00 AM - 8:00 PM, Saturday 11:00 AM - 8:00 PM, Sunday 12:00 PM - 6:00 PM, Monday 11:00 AM - 8:00 PM, Tuesday 11:00 AM - 8:00 PM, Wednesday 11:00 AM - 8:00 PM, Thursday 11:00 AM - 8:00 PM","<MISSING>","location_name:street_address"
"https://www.dillards.com/stores/ohio/belden-village-mall-canton/0373","Dillard's Belden Village Mall in Canton, Ohio","4400 Belden Village St NW","Canton","OH","44718","<MISSING>","0373","(330)494-3050","DepartmentStore","40.85445","-81.42518","dillards.com","Friday 11:00 AM - 8:00 PM, Saturday 11:00 AM - 8:00 PM, Sunday 12:00 PM - 6:00 PM, Monday 11:00 AM - 8:00 PM, Tuesday 11:00 AM - 8:00 PM, Wednesday 11:00 AM - 8:00 PM, Thursday 11:00 AM - 8:00 PM","<MISSING>","location_name:street_address"
"https://www.dillards.com/stores/ohio/kenwood-towne-centre-cincinnati/0351","Dillard's Kenwood Towne Centre in Cincinnati, Ohio","7913 Montgomery Rd","Cincinnati","OH","45236","<MISSING>","0351","(513)745-4489","DepartmentStore","39.20213","-84.37581","dillards.com","Friday 11:00 AM - 8:00 PM, Saturday 11:00 AM - 8:00 PM, Sunday 12:00 PM - 6:00 PM, Monday 11:00 AM - 8:00 PM, Tuesday 11:00 AM - 8:00 PM, Wednesday 11:00 AM - 8:00 PM, Thursday 11:00 AM - 8:00 PM","<MISSING>","location_name:street_address"
"https://www.dillards.com/stores/ohio/eastgate-mall-cincinnati/0523","Dillard's Eastgate Mall in Cincinnati, Ohio","4615 Eastgate Blvd","Cincinnati","OH","45245","<MISSING>","0523","(513)943-5100","DepartmentStore","39.1048","-84.27976","dillards.com","Friday 12:00 PM - 7:00 PM, Saturday 12:00 PM - 7:00 PM, Sunday 12:00 PM - 6:00 PM, Tuesday 12:00 PM - 7:00 PM, Wednesday 12:00 PM - 7:00 PM, Thursday 12:00 PM - 7:00 PM","<MISSING>","location_name:street_address"
"https://www.dillards.com/stores/ohio/liberty-center-liberty-township/0353","Dillard's Liberty Center in Liberty Township, Ohio","7660 Blake St","Liberty Township","OH","45069","<MISSING>","0353","(513)712-5902","DepartmentStore","39.37111","-84.37111","dillards.com","Friday 11:00 AM - 8:00 PM, Saturday 11:00 AM - 8:00 PM, Sunday 12:00 PM - 6:00 PM, Monday 11:00 AM - 8:00 PM, Tuesday 11:00 AM - 8:00 PM, Wednesday 11:00 AM - 8:00 PM, Thursday 11:00 AM - 8:00 PM","<MISSING>","location_name:street_address"
"https://www.dillards.com/stores/ohio/the-shops-at-fallen-timbers-maumee/0378","Dillard's The Shops At Fallen Timbers in Maumee, Ohio","3100 Main St #600","Maumee","OH","43537","<MISSING>","0378","(419)878-2729","DepartmentStore","41.5452","-83.7063","dillards.com","Friday 11:00 AM - 8:00 PM, Saturday 11:00 AM - 8:00 PM, Sunday 12:00 PM - 6:00 PM, Monday 11:00 AM - 8:00 PM, Tuesday 11:00 AM - 8:00 PM, Wednesday 11:00 AM - 8:00 PM, Thursday 11:00 AM - 8:00 PM","<MISSING>","location_name:street_address"
"https://www.dillards.com/stores/ohio/great-lakes-mall-mentor/0362","Dillard's Great Lakes Mall in Mentor, Ohio","7850 Mentor Ave","Mentor","OH","44060","<MISSING>","0362","(440)255-5651","DepartmentStore","41.65886","-81.36248","dillards.com","Friday 11:00 AM - 8:00 PM, Saturday 11:00 AM - 8:00 PM, Sunday 12:00 PM - 6:00 PM, Monday 11:00 AM - 8:00 PM, Tuesday 11:00 AM - 8:00 PM, Wednesday 11:00 AM - 8:00 PM, Thursday 11:00 AM - 8:00 PM","<MISSING>","location_name:street_address"
"https://www.dillards.com/stores/ohio/eastwood-mall-complex-niles/0528","Dillard's Eastwood Mall Complex in Niles, Ohio","5555 Youngstown Warren Rd","Niles","OH","44446","<MISSING>","0528","(330)544-1016","DepartmentStore","41.20778","-80.7431","dillards.com","Friday 12:00 PM - 7:00 PM, Saturday 12:00 PM - 7:00 PM, Sunday 12:00 PM - 6:00 PM, Monday 12:00 PM - 7:00 PM, Tuesday 12:00 PM - 7:00 PM, Wednesday 12:00 PM - 7:00 PM, Thursday 12:00 PM - 7:00 PM","<MISSING>","location_name:street_address"
"https://www.dillards.com/stores/ohio/great-northern-mall-north-olmsted/0367","Dillard's Great Northern Mall in North Olmsted, Ohio","25188 Country Club Blvd","North Olmsted","OH","44070","<MISSING>","0367","(440)777-0822","DepartmentStore","41.41393","-81.90811","dillards.com","Friday 11:00 AM - 8:00 PM, Saturday 11:00 AM - 8:00 PM, Sunday 12:00 PM - 6:00 PM, Monday 11:00 AM - 8:00 PM, Tuesday 11:00 AM - 8:00 PM, Wednesday 11:00 AM - 8:00 PM, Thursday 11:00 AM - 8:00 PM","<MISSING>","location_name:street_address"
"https://www.dillards.com/stores/ohio/southpark-mall-strongsville/0364","Dillard's Southpark Mall in Strongsville, Ohio","16996 Southpark Center","Strongsville","OH","44136","<MISSING>","0364","(440)846-8718","DepartmentStore","41.30978","-81.8193","dillards.com","Friday 11:00 AM - 8:00 PM, Saturday 11:00 AM - 8:00 PM, Sunday 12:00 PM - 6:00 PM, Monday 11:00 AM - 8:00 PM, Tuesday 11:00 AM - 8:00 PM, Wednesday 11:00 AM - 8:00 PM, Thursday 11:00 AM - 8:00 PM","<MISSING>","location_name:street_address"
"https://www.dillards.com/stores/ohio/franklin-park-mall-toledo/0376","Dillard's Franklin Park Mall in Toledo, Ohio","5001 Monroe St","Toledo","OH","43623","<MISSING>","0376","(419)473-9600","DepartmentStore","41.69586","-83.64243","dillards.com","Friday 11:00 AM - 8:00 PM, Saturday 11:00 AM - 8:00 PM, Sunday 12:00 PM - 6:00 PM, Monday 11:00 AM - 8:00 PM, Tuesday 11:00 AM - 8:00 PM, Wednesday 11:00 AM - 8:00 PM, Thursday 11:00 AM - 8:00 PM","<MISSING>","location_name:street_address"
"https://www.dillards.com/stores/oklahoma/washington-park-mall-bartlesville/0524","Dillard's Washington Park Mall in Bartlesville, Oklahoma","2350 SE Washington Blvd","Bartlesville","OK","74006","<MISSING>","0524","(918)335-3300","DepartmentStore","36.71283","-95.93768","dillards.com","Friday 12:00 PM - 7:00 PM, Saturday 12:00 PM - 7:00 PM, Sunday 12:00 PM - 6:00 PM, Tuesday 12:00 PM - 7:00 PM, Wednesday 12:00 PM - 7:00 PM, Thursday 12:00 PM - 7:00 PM","<MISSING>","location_name:street_address"
"https://www.dillards.com/stores/oklahoma/sooner-mall-norman/0798","Dillard's Sooner Mall in Norman, Oklahoma","3499 W Main St","Norman","OK","73072-4809","<MISSING>","0798","(405)329-2600","DepartmentStore","35.21915","-97.49231","dillards.com","Friday 11:00 AM - 8:00 PM, Saturday 11:00 AM - 8:00 PM, Sunday 12:00 PM - 6:00 PM, Monday 11:00 AM - 8:00 PM, Tuesday 11:00 AM - 8:00 PM, Wednesday 11:00 AM - 8:00 PM, Thursday 11:00 AM - 8:00 PM","<MISSING>","location_name:street_address"
"https://www.dillards.com/stores/oklahoma/quail-springs-mall-oklahoma-city/0795","Dillard's Quail Springs Mall in Oklahoma City, Oklahoma","2501 W Memorial Rd #1001","Oklahoma City","OK","73134","<MISSING>","0795","(405)755-5220","DepartmentStore","35.6143","-97.55741","dillards.com","Friday 11:00 AM - 8:00 PM, Saturday 11:00 AM - 8:00 PM, Sunday 12:00 PM - 6:00 PM, Monday 11:00 AM - 8:00 PM, Tuesday 11:00 AM - 8:00 PM, Wednesday 11:00 AM - 8:00 PM, Thursday 11:00 AM - 8:00 PM","<MISSING>","location_name:street_address"
"https://www.dillards.com/stores/oklahoma/penn-square-mall-oklahoma-city/0796","Dillard's Penn Square Mall in Oklahoma City, Oklahoma","1901 Northwest Expy #1001","Oklahoma City","OK","73118","<MISSING>","0796","(405)840-8495","DepartmentStore","35.52426","-97.54266","dillards.com","Friday 11:00 AM - 8:00 PM, Saturday 11:00 AM - 8:00 PM, Sunday 12:00 PM - 6:00 PM, Monday 11:00 AM - 8:00 PM, Tuesday 11:00 AM - 8:00 PM, Wednesday 11:00 AM - 8:00 PM, Thursday 11:00 AM - 8:00 PM","<MISSING>","location_name:street_address"
"https://www.dillards.com/stores/oklahoma/shawnee-mall-shawnee/0797","Dillard's Shawnee Mall in Shawnee, Oklahoma","4901 N Kickapoo Ave St","Shawnee","OK","74804","<MISSING>","0797","(405)273-1500","DepartmentStore","35.38751","-96.92825","dillards.com","Friday 11:00 AM - 8:00 PM, Saturday 11:00 AM - 8:00 PM, Sunday 12:00 PM - 6:00 PM, Monday 11:00 AM - 8:00 PM, Tuesday 11:00 AM - 8:00 PM, Wednesday 11:00 AM - 8:00 PM, Thursday 11:00 AM - 8:00 PM","<MISSING>","location_name:street_address"
"https://www.dillards.com/stores/oklahoma/tulsa-promenade-tulsa/0791","Dillard's Tulsa Promenade in Tulsa, Oklahoma","4169 S Yale Ave","Tulsa","OK","74135","<MISSING>","0791","(918)627-7700","DepartmentStore","36.1033","-95.91788","dillards.com","Friday 11:00 AM - 8:00 PM, Saturday 11:00 AM - 8:00 PM, Sunday 12:00 PM - 6:00 PM, Monday 11:00 AM - 8:00 PM, Tuesday 11:00 AM - 8:00 PM, Wednesday 11:00 AM - 8:00 PM, Thursday 11:00 AM - 8:00 PM","<MISSING>","location_name:street_address"
"https://www.dillards.com/stores/oklahoma/woodland-hills-mall-tulsa/0792","Dillard's Woodland Hills Mall in Tulsa, Oklahoma","6919 S Memorial Dr","Tulsa","OK","74133","<MISSING>","0792","(918)252-1890","DepartmentStore","36.06415","-95.88261","dillards.com","Friday 11:00 AM - 8:00 PM, Saturday 11:00 AM - 8:00 PM, Sunday 12:00 PM - 6:00 PM, Monday 11:00 AM - 8:00 PM, Tuesday 11:00 AM - 8:00 PM, Wednesday 11:00 AM - 8:00 PM, Thursday 11:00 AM - 8:00 PM","<MISSING>","location_name:street_address"
"https://www.dillards.com/stores/south-carolina/anderson-mall-anderson/0168","Dillard's Anderson Mall in Anderson, South Carolina","3101 N Main St d","Anderson","SC","29621","<MISSING>","0168","(864)224-1315","DepartmentStore","34.5387","-82.66893","dillards.com","Friday 11:00 AM - 8:00 PM, Saturday 11:00 AM - 8:00 PM, Sunday 12:00 PM - 6:00 PM, Monday 11:00 AM - 8:00 PM, Tuesday 11:00 AM - 8:00 PM, Wednesday 11:00 AM - 8:00 PM, Thursday 11:00 AM - 8:00 PM","<MISSING>","location_name:street_address"
"https://www.dillards.com/stores/south-carolina/citadel-mall-charleston/0161","Dillard's Citadel Mall in Charleston, South Carolina","2066 Sam Rittenberg Blvd","Charleston","SC","29407","<MISSING>","0161","(843)556-0080","DepartmentStore","32.79808","-80.03395","dillards.com","Friday 11:00 AM - 8:00 PM, Saturday 11:00 AM - 8:00 PM, Sunday 12:00 PM - 6:00 PM, Monday 11:00 AM - 8:00 PM, Tuesday 11:00 AM - 8:00 PM, Wednesday 11:00 AM - 8:00 PM, Thursday 11:00 AM - 8:00 PM","<MISSING>","location_name:street_address"
"https://www.dillards.com/stores/south-carolina/columbiana-centre-columbia/0164","Dillard's Columbiana Centre in Columbia, South Carolina","100 Columbiana Cir","Columbia","SC","29212","<MISSING>","0164","(803)732-7037","DepartmentStore","34.08085","-81.15815","dillards.com","Friday 11:00 AM - 8:00 PM, Saturday 11:00 AM - 8:00 PM, Sunday 12:00 PM - 6:00 PM, Monday 11:00 AM - 8:00 PM, Tuesday 11:00 AM - 8:00 PM, Wednesday 11:00 AM - 8:00 PM, Thursday 11:00 AM - 8:00 PM","<MISSING>","location_name:street_address"
"https://www.dillards.com/stores/south-carolina/haywood-mall-greenville/0166","Dillard's Haywood Mall in Greenville, South Carolina","700 Haywood Rd #508","Greenville","SC","29607","<MISSING>","0166","(864)987-9229","DepartmentStore","34.85038","-82.33038","dillards.com","Friday 11:00 AM - 8:00 PM, Saturday 11:00 AM - 8:00 PM, Sunday 12:00 PM - 6:00 PM, Monday 11:00 AM - 8:00 PM, Tuesday 11:00 AM - 8:00 PM, Wednesday 11:00 AM - 8:00 PM, Thursday 11:00 AM - 8:00 PM","<MISSING>","location_name:street_address"
"https://www.dillards.com/stores/south-carolina/coastal-grand-mall-myrtle-beach/0163","Dillard's Coastal Grand Mall in Myrtle Beach, South Carolina","100 Coastal Grand Cir","Myrtle Beach","SC","29577","<MISSING>","0163","(843)839-2917","DepartmentStore","33.7017","-78.9263","dillards.com","Friday 11:00 AM - 8:00 PM, Saturday 11:00 AM - 8:00 PM, Sunday 12:00 PM - 6:00 PM, Monday 11:00 AM - 8:00 PM, Tuesday 11:00 AM - 8:00 PM, Wednesday 11:00 AM - 8:00 PM, Thursday 11:00 AM - 8:00 PM","<MISSING>","location_name:street_address"
"https://www.dillards.com/stores/south-carolina/northwood-mall-north-charleston/0162","Dillard's Northwood Mall in North Charleston, South Carolina","2150 Northwoods Blvd","North Charleston","SC","29406","<MISSING>","0162","(843)553-6363","DepartmentStore","32.9425","-80.04345","dillards.com","Friday 11:00 AM - 8:00 PM, Saturday 11:00 AM - 8:00 PM, Sunday 12:00 PM - 6:00 PM, Monday 11:00 AM - 8:00 PM, Tuesday 11:00 AM - 8:00 PM, Wednesday 11:00 AM - 8:00 PM, Thursday 11:00 AM - 8:00 PM","<MISSING>","location_name:street_address"
"https://www.dillards.com/stores/south-carolina/westgate-mall-spartanburg/0167","Dillard's Westgate Mall in Spartanburg, South Carolina","205 W Blackstock Rd","Spartanburg","SC","29301","<MISSING>","0167","(864)576-0046","DepartmentStore","34.94023","-81.99228","dillards.com","Friday 11:00 AM - 8:00 PM, Saturday 11:00 AM - 8:00 PM, Sunday 12:00 PM - 6:00 PM, Monday 11:00 AM - 8:00 PM, Tuesday 11:00 AM - 8:00 PM, Wednesday 11:00 AM - 8:00 PM, Thursday 11:00 AM - 8:00 PM","<MISSING>","location_name:street_address"
"https://www.dillards.com/stores/tennessee/hamilton-place-chattanooga/0430","Dillard's Hamilton Place in Chattanooga, Tennessee","2100 Hamilton Pl Blvd","Chattanooga","TN","37421","<MISSING>","0430","(423)892-1110","DepartmentStore","35.03663","-85.15826","dillards.com","Friday 11:00 AM - 8:00 PM, Saturday 11:00 AM - 8:00 PM, Sunday 12:00 PM - 6:00 PM, Monday 11:00 AM - 8:00 PM, Tuesday 11:00 AM - 8:00 PM, Wednesday 11:00 AM - 8:00 PM, Thursday 11:00 AM - 8:00 PM","<MISSING>","location_name:street_address"
"https://www.dillards.com/stores/tennessee/governors-square-mall-clarksville/0426","Dillard's Governor's Square Mall in Clarksville, Tennessee","2801 Wilma Rudolph Blvd","Clarksville","TN","37040","<MISSING>","0426","(931)648-3511","DepartmentStore","36.58798","-87.28598","dillards.com","Friday 11:00 AM - 8:00 PM, Saturday 11:00 AM - 8:00 PM, Sunday 12:00 PM - 6:00 PM, Monday 11:00 AM - 8:00 PM, Tuesday 11:00 AM - 8:00 PM, Wednesday 11:00 AM - 8:00 PM, Thursday 11:00 AM - 8:00 PM","<MISSING>","location_name:street_address"
"https://www.dillards.com/stores/tennessee/carriage-crossing-collierville/0409","Dillard's Carriage Crossing in Collierville, Tennessee","4620 Merchants Park Cir Bldg C","Collierville","TN","38017","<MISSING>","0409","(901)850-2229","DepartmentStore","35.02203","-89.72028","dillards.com","Friday 11:00 AM - 8:00 PM, Saturday 11:00 AM - 8:00 PM, Sunday 12:00 PM - 6:00 PM, Monday 11:00 AM - 8:00 PM, Tuesday 11:00 AM - 8:00 PM, Wednesday 11:00 AM - 8:00 PM, Thursday 11:00 AM - 8:00 PM","<MISSING>","location_name:street_address"
"https://www.dillards.com/stores/tennessee/coolsprings-galleria-franklin/0425","Dillard's Coolsprings Galleria in Franklin, Tennessee","1796 Galleria Blvd","Franklin","TN","37067","<MISSING>","0425","(615)771-7101","DepartmentStore","35.95661","-86.81246","dillards.com","Friday 11:00 AM - 8:00 PM, Saturday 11:00 AM - 8:00 PM, Sunday 12:00 PM - 6:00 PM, Monday 11:00 AM - 8:00 PM, Tuesday 11:00 AM - 8:00 PM, Wednesday 11:00 AM - 8:00 PM, Thursday 11:00 AM - 8:00 PM","<MISSING>","location_name:street_address"
"https://www.dillards.com/stores/tennessee/rivergate-mall-goodlettsville/0422","Dillard's Rivergate Mall in Goodlettsville, Tennessee","1000 Rivergate Pkwy","Goodlettsville","TN","37072","<MISSING>","0422","(615)859-2811","DepartmentStore","36.30275","-86.69608","dillards.com","Friday 11:00 AM - 8:00 PM, Saturday 11:00 AM - 8:00 PM, Sunday 12:00 PM - 6:00 PM, Monday 11:00 AM - 8:00 PM, Tuesday 11:00 AM - 8:00 PM, Wednesday 11:00 AM - 8:00 PM, Thursday 11:00 AM - 8:00 PM","<MISSING>","location_name:street_address"
"https://www.dillards.com/stores/tennessee/west-town-mall-knoxville/0428","Dillard's West Town Mall in Knoxville, Tennessee","7600 Kingston Pike #300","Knoxville","TN","37919","<MISSING>","0428","(865)531-1931","DepartmentStore","35.92571","-84.03995","dillards.com","Friday 11:00 AM - 8:00 PM, Saturday 11:00 AM - 8:00 PM, Sunday 12:00 PM - 6:00 PM, Monday 11:00 AM - 8:00 PM, Tuesday 11:00 AM - 8:00 PM, Wednesday 11:00 AM - 8:00 PM, Thursday 11:00 AM - 8:00 PM","<MISSING>","location_name:street_address"
"https://www.dillards.com/stores/tennessee/oak-court-mall-memphis/0410","Dillard's Oak Court Mall in Memphis, Tennessee","4433 Poplar Ave","Memphis","TN","38117","<MISSING>","0410","(901)685-0382","DepartmentStore","35.11765","-89.9144","dillards.com","Friday 11:00 AM - 8:00 PM, Saturday 11:00 AM - 8:00 PM, Sunday 12:00 PM - 6:00 PM, Monday 11:00 AM - 8:00 PM, Tuesday 11:00 AM - 8:00 PM, Wednesday 11:00 AM - 8:00 PM, Thursday 11:00 AM - 8:00 PM","<MISSING>","location_name:street_address"
"https://www.dillards.com/stores/tennessee/wolfchase-galleria-memphis/0411","Dillard's Wolfchase Galleria in Memphis, Tennessee","2700 N Germantown Pkwy","Memphis","TN","38133","<MISSING>","0411","(901)383-1029","DepartmentStore","35.20111","-89.78755","dillards.com","Friday 11:00 AM - 8:00 PM, Saturday 11:00 AM - 8:00 PM, Sunday 12:00 PM - 6:00 PM, Monday 11:00 AM - 8:00 PM, Tuesday 11:00 AM - 8:00 PM, Wednesday 11:00 AM - 8:00 PM, Thursday 11:00 AM - 8:00 PM","<MISSING>","location_name:street_address"
"https://www.dillards.com/stores/tennessee/stones-river-town-center-murfreesboro/0427","Dillard's Stones River Town Center in Murfreesboro, Tennessee","1720 Old Fort Pkwy","Murfreesboro","TN","37129","<MISSING>","0427","(615)867-2100","DepartmentStore","35.84836","-86.4203","dillards.com","Friday 11:00 AM - 8:00 PM, Saturday 11:00 AM - 8:00 PM, Sunday 12:00 PM - 6:00 PM, Monday 11:00 AM - 8:00 PM, Tuesday 11:00 AM - 8:00 PM, Wednesday 11:00 AM - 8:00 PM, Thursday 11:00 AM - 8:00 PM","<MISSING>","location_name:street_address"
"https://www.dillards.com/stores/tennessee/the-mall-at-green-hills-nashville/0421","Dillard's The Mall At Green Hills in Nashville, Tennessee","2140 Abbott Martin Rd","Nashville","TN","37215","<MISSING>","0421","(615)297-0971","DepartmentStore","36.10651","-86.81751","dillards.com","Friday 11:00 AM - 8:00 PM, Saturday 11:00 AM - 8:00 PM, Sunday 12:00 PM - 6:00 PM, Monday 11:00 AM - 8:00 PM, Tuesday 11:00 AM - 8:00 PM, Wednesday 11:00 AM - 8:00 PM, Thursday 11:00 AM - 8:00 PM","<MISSING>","location_name:street_address"
"https://www.dillards.com/stores/texas/mall-of-abilene-abilene/0744","Dillard's Mall Of Abilene in Abilene, Texas","4310 Buffalo Gap Rd","Abilene","TX","79606","<MISSING>","0744","(325)695-2200","DepartmentStore","32.39976","-99.7636","dillards.com","Friday 11:00 AM - 8:00 PM, Saturday 11:00 AM - 8:00 PM, Sunday 12:00 PM - 6:00 PM, Monday 11:00 AM - 8:00 PM, Tuesday 11:00 AM - 8:00 PM, Wednesday 11:00 AM - 8:00 PM, Thursday 11:00 AM - 8:00 PM","<MISSING>","location_name:street_address"
"https://www.dillards.com/stores/texas/westgate-mall-amarillo/0740","Dillard's Westgate Mall in Amarillo, Texas","7701 W Interstate 40 Ste 300","Amarillo","TX","79121","<MISSING>","0740","(806)358-7771","DepartmentStore","35.18588","-101.9247","dillards.com","Friday 11:00 AM - 8:00 PM, Saturday 11:00 AM - 8:00 PM, Sunday 12:00 PM - 6:00 PM, Monday 11:00 AM - 8:00 PM, Tuesday 11:00 AM - 8:00 PM, Wednesday 11:00 AM - 8:00 PM, Thursday 11:00 AM - 8:00 PM","<MISSING>","location_name:street_address"
"https://www.dillards.com/stores/texas/the-parks-mall-at-arlington-arlington/0714","Dillard's The Parks Mall At Arlington in Arlington, Texas","3821 S Cooper St","Arlington","TX","76015","<MISSING>","0714","(817)465-0718","DepartmentStore","32.681","-97.13153","dillards.com","Friday 11:00 AM - 8:00 PM, Saturday 11:00 AM - 8:00 PM, Sunday 12:00 PM - 6:00 PM, Monday 11:00 AM - 8:00 PM, Tuesday 11:00 AM - 8:00 PM, Wednesday 11:00 AM - 8:00 PM, Thursday 11:00 AM - 8:00 PM","<MISSING>","location_name:street_address"
"https://www.dillards.com/stores/texas/barton-creek-square-austin/0733","Dillard's Barton Creek Square in Austin, Texas","2901 N Capital of Texas Hwy","Austin","TX","78746","<MISSING>","0733","(512)327-6100","DepartmentStore","30.2564","-97.80481","dillards.com","Friday 11:00 AM - 8:00 PM, Saturday 11:00 AM - 8:00 PM, Sunday 12:00 PM - 6:00 PM, Monday 11:00 AM - 8:00 PM, Tuesday 11:00 AM - 8:00 PM, Wednesday 11:00 AM - 8:00 PM, Thursday 11:00 AM - 8:00 PM","<MISSING>","location_name:street_address"
"https://www.dillards.com/stores/texas/the-domain-austin/0734","Dillard's The Domain in Austin, Texas","3211 Feathergrass Ct","Austin","TX","78758-7772","<MISSING>","0734","(512)833-9556","DepartmentStore","30.38333","-97.71666","dillards.com","Friday 11:00 AM - 8:00 PM, Saturday 11:00 AM - 8:00 PM, Sunday 12:00 PM - 6:00 PM, Monday 11:00 AM - 8:00 PM, Tuesday 11:00 AM - 8:00 PM, Wednesday 11:00 AM - 8:00 PM, Thursday 11:00 AM - 8:00 PM","<MISSING>","location_name:street_address"
"https://www.dillards.com/stores/texas/parkdale-mall-beaumont/0786","Dillard's Parkdale Mall in Beaumont, Texas","5955 Eastex Fwy","Beaumont","TX","77706","<MISSING>","0786","(409)899-9800","DepartmentStore","30.12475","-94.16378","dillards.com","Friday 11:00 AM - 8:00 PM, Saturday 11:00 AM - 8:00 PM, Sunday 12:00 PM - 6:00 PM, Monday 11:00 AM - 8:00 PM, Tuesday 11:00 AM - 8:00 PM, Wednesday 11:00 AM - 8:00 PM, Thursday 11:00 AM - 8:00 PM","<MISSING>","location_name:street_address"
"https://www.dillards.com/stores/texas/hill-country-galleria-bee-cave/0736","Dillard's Hill Country Galleria in Bee Cave, Texas","4000 Vista Ridge","Bee Cave","TX","78738","<MISSING>","0736","(512)263-0520","DepartmentStore","30.30943","-97.94348","dillards.com","Friday 11:00 AM - 8:00 PM, Saturday 11:00 AM - 8:00 PM, Sunday 12:00 PM - 6:00 PM, Monday 11:00 AM - 8:00 PM, Tuesday 11:00 AM - 8:00 PM, Wednesday 11:00 AM - 8:00 PM, Thursday 11:00 AM - 8:00 PM","<MISSING>","location_name:street_address"
"https://www.dillards.com/stores/texas/sunrise-mall-brownsville/0729","Dillard's Sunrise Mall in Brownsville, Texas","2340 N. Expressway","Brownsville","TX","78526","<MISSING>","0729","(956)546-4581","DepartmentStore","25.95535","-97.5047","dillards.com","Friday 11:00 AM - 8:00 PM, Saturday 11:00 AM - 8:00 PM, Sunday 12:00 PM - 7:00 PM, Monday 11:00 AM - 8:00 PM, Tuesday 11:00 AM - 8:00 PM, Wednesday 11:00 AM - 8:00 PM, Thursday 11:00 AM - 8:00 PM","<MISSING>","location_name:street_address"
"https://www.dillards.com/stores/texas/hillside-village-cedar-hill/0715","Dillard's Hillside Village in Cedar Hill, Texas","309 W Farm to Market Rd 1382","Cedar Hill","TX","75104","<MISSING>","0715","(972)293-0868","DepartmentStore","32.60266","-96.94626","dillards.com","Friday 11:00 AM - 8:00 PM, Saturday 11:00 AM - 8:00 PM, Sunday 12:00 PM - 6:00 PM, Monday 11:00 AM - 8:00 PM, Tuesday 11:00 AM - 8:00 PM, Wednesday 11:00 AM - 8:00 PM, Thursday 11:00 AM - 8:00 PM","<MISSING>","location_name:street_address"
"https://www.dillards.com/stores/texas/lakeline-mall-cedar-park/0735","Dillard's Lakeline Mall in Cedar Park, Texas","11200 Lakeline Mall Dr","Cedar Park","TX","78613","<MISSING>","0735","(512)257-8740","DepartmentStore","30.47051","-97.80616","dillards.com","Friday 11:00 AM - 8:00 PM, Saturday 11:00 AM - 8:00 PM, Sunday 12:00 PM - 6:00 PM, Monday 11:00 AM - 8:00 PM, Tuesday 11:00 AM - 8:00 PM, Wednesday 11:00 AM - 8:00 PM, Thursday 11:00 AM - 8:00 PM","<MISSING>","location_name:street_address"
"https://www.dillards.com/stores/texas/post-oak-mall-college-station/0783","Dillard's Post Oak Mall in College Station, Texas","1504 Harvey Rd","College Station","TX","77840","<MISSING>","0783","(979)764-0014","DepartmentStore","30.62505","-96.30508","dillards.com","Friday 11:00 AM - 8:00 PM, Saturday 11:00 AM - 8:00 PM, Sunday 12:00 PM - 6:00 PM, Monday 11:00 AM - 8:00 PM, Tuesday 11:00 AM - 8:00 PM, Wednesday 11:00 AM - 8:00 PM, Thursday 11:00 AM - 8:00 PM","<MISSING>","location_name:street_address"
"https://www.dillards.com/stores/texas/la-palmera-corpus-christi/0738","Dillard's La Palmera in Corpus Christi, Texas","5488 S Padre Island Dr","Corpus Christi","TX","78411","<MISSING>","0738","(361)991-7300","DepartmentStore","27.71208","-97.37393","dillards.com","Friday 11:00 AM - 8:00 PM, Saturday 11:00 AM - 8:00 PM, Sunday 12:00 PM - 6:00 PM, Monday 11:00 AM - 8:00 PM, Tuesday 11:00 AM - 8:00 PM, Wednesday 11:00 AM - 8:00 PM, Thursday 11:00 AM - 8:00 PM","<MISSING>","location_name:street_address"
"https://www.dillards.com/stores/texas/northpark-center-dallas/0716","Dillard's Northpark Center in Dallas, Texas","8687 N Central Expy","Dallas","TX","75225","<MISSING>","0716","(214)373-7000","DepartmentStore","32.86656","-96.77053","dillards.com","Friday 11:00 AM - 8:00 PM, Saturday 11:00 AM - 8:00 PM, Sunday 12:00 PM - 6:00 PM, Monday 11:00 AM - 8:00 PM, Tuesday 11:00 AM - 8:00 PM, Wednesday 11:00 AM - 8:00 PM, Thursday 11:00 AM - 8:00 PM","<MISSING>","location_name:street_address"
"https://www.dillards.com/stores/texas/golden-triangle-mall-denton/0709","Dillard's Golden Triangle Mall in Denton, Texas","2201 S Interstate 35 E","Denton","TX","76205","<MISSING>","0709","(940)566-6210","DepartmentStore","33.19125","-97.10826","dillards.com","Friday 11:00 AM - 8:00 PM, Saturday 11:00 AM - 8:00 PM, Sunday 12:00 PM - 6:00 PM, Monday 11:00 AM - 8:00 PM, Tuesday 11:00 AM - 8:00 PM, Wednesday 11:00 AM - 8:00 PM, Thursday 11:00 AM - 8:00 PM","<MISSING>","location_name:street_address"
"https://www.dillards.com/stores/texas/cielo-vista-mall-el-paso/0924","Dillard's Cielo Vista Mall in El Paso, Texas","8401 Gateway Blvd W","El Paso","TX","79925","<MISSING>","0924","(915)779-6969","DepartmentStore","31.7754","-106.37843","dillards.com","Friday 11:00 AM - 8:00 PM, Saturday 11:00 AM - 8:00 PM, Sunday 12:00 PM - 7:00 PM, Monday 11:00 AM - 8:00 PM, Tuesday 11:00 AM - 8:00 PM, Wednesday 11:00 AM - 8:00 PM, Thursday 11:00 AM - 8:00 PM","<MISSING>","location_name:street_address"
"https://www.dillards.com/stores/texas/sunland-park-mall-el-paso/0926","Dillard's Sunland Park Mall in El Paso, Texas","750 Sunland Park Dr","El Paso","TX","79912","<MISSING>","0926","(915)833-8100","DepartmentStore","31.81683","-106.5447","dillards.com","Friday 11:00 AM - 8:00 PM, Saturday 11:00 AM - 8:00 PM, Sunday 12:00 PM - 7:00 PM, Monday 11:00 AM - 8:00 PM, Tuesday 11:00 AM - 8:00 PM, Wednesday 11:00 AM - 8:00 PM, Thursday 11:00 AM - 8:00 PM","<MISSING>","location_name:street_address"
"https://www.dillards.com/stores/texas/fairview-town-center-fairview/0717","Dillard's Fairview Town Center in Fairview, Texas","121 E Stacy Rd","Fairview","TX","75069","<MISSING>","0717","(972)549-1300","DepartmentStore","33.13228","-96.65475","dillards.com","Friday 11:00 AM - 8:00 PM, Saturday 11:00 AM - 8:00 PM, Sunday 12:00 PM - 6:00 PM, Monday 11:00 AM - 8:00 PM, Tuesday 11:00 AM - 8:00 PM, Wednesday 11:00 AM - 8:00 PM, Thursday 11:00 AM - 8:00 PM","<MISSING>","location_name:street_address"
"https://www.dillards.com/stores/texas/ridgmar-mall-fort-worth/0507","Dillard's Ridgmar Mall in Fort Worth, Texas","1700 Green Oaks Rd","Fort Worth","TX","76116","<MISSING>","0507","(817)731-4711","DepartmentStore","32.74276","-97.43738","dillards.com","Friday 12:00 PM - 7:00 PM, Saturday 12:00 PM - 7:00 PM, Sunday 12:00 PM - 6:00 PM, Tuesday 12:00 PM - 7:00 PM, Wednesday 12:00 PM - 7:00 PM, Thursday 12:00 PM - 7:00 PM","<MISSING>","location_name:street_address"
"https://www.dillards.com/stores/texas/hulen-mall-fort-worth/0704","Dillard's Hulen Mall in Fort Worth, Texas","4850 Overton Ridge Blvd","Fort Worth","TX","76132","<MISSING>","0704","(817)294-1449","DepartmentStore","32.6796","-97.39935","dillards.com","Friday 11:00 AM - 8:00 PM, Saturday 11:00 AM - 8:00 PM, Sunday 12:00 PM - 6:00 PM, Monday 11:00 AM - 8:00 PM, Tuesday 11:00 AM - 8:00 PM, Wednesday 11:00 AM - 8:00 PM, Thursday 11:00 AM - 8:00 PM","<MISSING>","location_name:street_address"
"https://www.dillards.com/stores/texas/baybrook-mall-friendswood/0779","Dillard's Baybrook Mall in Friendswood, Texas","600 Baybrook Mall","Friendswood","TX","77546","<MISSING>","0779","(281)486-0700","DepartmentStore","29.54375","-95.14968","dillards.com","Friday 11:00 AM - 8:00 PM, Saturday 11:00 AM - 8:00 PM, Sunday 12:00 PM - 6:00 PM, Monday 11:00 AM - 8:00 PM, Tuesday 11:00 AM - 8:00 PM, Wednesday 11:00 AM - 8:00 PM, Thursday 11:00 AM - 8:00 PM","<MISSING>","location_name:street_address"
"https://www.dillards.com/stores/texas/stonebriar-centre-frisco/0719","Dillard's Stonebriar Centre in Frisco, Texas","2603 Preston Rd","Frisco","TX","75034","<MISSING>","0719","(214)705-8065","DepartmentStore","33.1025","-96.80583","dillards.com","Friday 11:00 AM - 8:00 PM, Saturday 11:00 AM - 8:00 PM, Sunday 12:00 PM - 6:00 PM, Monday 11:00 AM - 8:00 PM, Tuesday 11:00 AM - 8:00 PM, Wednesday 11:00 AM - 8:00 PM, Thursday 11:00 AM - 8:00 PM","<MISSING>","location_name:street_address"
"https://www.dillards.com/stores/texas/firewheel-town-center-garland/0708","Dillard's Firewheel Town Center in Garland, Texas","301 Horseshoe Dr","Garland","TX","75040","<MISSING>","0708","(972)496-4070","DepartmentStore","32.95553","-96.61525","dillards.com","Friday 11:00 AM - 8:00 PM, Saturday 11:00 AM - 8:00 PM, Sunday 12:00 PM - 6:00 PM, Monday 11:00 AM - 8:00 PM, Tuesday 11:00 AM - 8:00 PM, Wednesday 11:00 AM - 8:00 PM, Thursday 11:00 AM - 8:00 PM","<MISSING>","location_name:street_address"
"https://www.dillards.com/stores/texas/west-oaks-mall-houston/0510","Dillard's West Oaks Mall in Houston, Texas","900 West Oaks Mall","Houston","TX","77082","<MISSING>","0510","(281)558-4431","DepartmentStore","29.73331","-95.64468","dillards.com","Friday 12:00 PM - 7:00 PM, Saturday 12:00 PM - 7:00 PM, Sunday 12:00 PM - 6:00 PM, Tuesday 12:00 PM - 7:00 PM, Wednesday 12:00 PM - 7:00 PM, Thursday 12:00 PM - 7:00 PM","<MISSING>","location_name:street_address"
"https://www.dillards.com/stores/texas/willowbrook-mall-houston/0771","Dillard's Willowbrook Mall in Houston, Texas","7925 Farm to Market 1960 Rd W","Houston","TX","77070","<MISSING>","0771","(281)890-9200","DepartmentStore","29.96183","-95.53821","dillards.com","Friday 11:00 AM - 8:00 PM, Saturday 11:00 AM - 8:00 PM, Sunday 12:00 PM - 6:00 PM, Monday 11:00 AM - 8:00 PM, Tuesday 11:00 AM - 8:00 PM, Wednesday 11:00 AM - 8:00 PM, Thursday 11:00 AM - 8:00 PM","<MISSING>","location_name:street_address"
"https://www.dillards.com/stores/texas/memorial-city-mall-houston/0774","Dillard's Memorial City Mall in Houston, Texas","900 Memorial City Way","Houston","TX","77024","<MISSING>","0774","(713)464-1851","DepartmentStore","29.7817","-95.53706","dillards.com","Friday 11:00 AM - 8:00 PM, Saturday 11:00 AM - 8:00 PM, Sunday 12:00 PM - 6:00 PM, Monday 11:00 AM - 8:00 PM, Tuesday 11:00 AM - 8:00 PM, Wednesday 11:00 AM - 8:00 PM, Thursday 11:00 AM - 8:00 PM","<MISSING>","location_name:street_address"
"https://www.dillards.com/stores/texas/post-oak-houston/0775","Dillard's Post Oak in Houston, Texas","4925 Westheimer Rd","Houston","TX","77056","<MISSING>","0775","(713)622-1200","DepartmentStore","29.7398","-95.45925","dillards.com","Friday 11:00 AM - 8:00 PM, Saturday 11:00 AM - 8:00 PM, Sunday 12:00 PM - 6:00 PM, Monday 11:00 AM - 8:00 PM, Tuesday 11:00 AM - 8:00 PM, Wednesday 11:00 AM - 8:00 PM, Thursday 11:00 AM - 8:00 PM","<MISSING>","location_name:street_address"
"https://www.dillards.com/stores/texas/deerbrook-mall-humble/0780","Dillard's Deerbrook Mall in Humble, Texas","20131 US-59","Humble","TX","77338","<MISSING>","0780","(281)540-1612","DepartmentStore","30.0084","-95.26938","dillards.com","Friday 11:00 AM - 8:00 PM, Saturday 11:00 AM - 8:00 PM, Sunday 12:00 PM - 6:00 PM, Monday 11:00 AM - 8:00 PM, Tuesday 11:00 AM - 8:00 PM, Wednesday 11:00 AM - 8:00 PM, Thursday 11:00 AM - 8:00 PM","<MISSING>","location_name:street_address"
"https://www.dillards.com/stores/texas/north-east-mall-hurst/0701","Dillard's North East Mall in Hurst, Texas","1101 Melbourne Rd","Hurst","TX","76053","<MISSING>","0701","(817)284-4566","DepartmentStore","32.82781","-97.20051","dillards.com","Friday 11:00 AM - 8:00 PM, Saturday 11:00 AM - 8:00 PM, Sunday 12:00 PM - 6:00 PM, Monday 11:00 AM - 8:00 PM, Tuesday 11:00 AM - 8:00 PM, Wednesday 11:00 AM - 8:00 PM, Thursday 11:00 AM - 8:00 PM","<MISSING>","location_name:street_address"
"https://www.dillards.com/stores/texas/irving-mall-irving/0506","Dillard's Irving Mall in Irving, Texas","3901 Irving Mall","Irving","TX","75062","<MISSING>","0506","(972)258-4968","DepartmentStore","32.83818","-96.99831","dillards.com","Friday 12:00 PM - 7:00 PM, Saturday 12:00 PM - 7:00 PM, Sunday 12:00 PM - 6:00 PM, Tuesday 12:00 PM - 7:00 PM, Wednesday 12:00 PM - 7:00 PM, Thursday 12:00 PM - 7:00 PM","<MISSING>","location_name:street_address"
"https://www.dillards.com/stores/texas/killeen-mall-killeen/0732","Dillard's Killeen Mall in Killeen, Texas","2100 South W S Young Drive","Killeen","TX","76543","<MISSING>","0732","(254)699-6116","DepartmentStore","31.09241","-97.7179","dillards.com","Friday 11:00 AM - 8:00 PM, Saturday 11:00 AM - 8:00 PM, Sunday 12:00 PM - 6:00 PM, Monday 11:00 AM - 8:00 PM, Tuesday 11:00 AM - 8:00 PM, Wednesday 11:00 AM - 8:00 PM, Thursday 11:00 AM - 8:00 PM","<MISSING>","location_name:street_address"
"https://www.dillards.com/stores/texas/brazos-mall-lake-jackson/0784","Dillard's Brazos Mall in Lake Jackson, Texas","100 TX-332 ste 1400","Lake Jackson","TX","77566","<MISSING>","0784","(979)297-7201","DepartmentStore","29.05278","-95.45855","dillards.com","Friday 11:00 AM - 8:00 PM, Saturday 11:00 AM - 8:00 PM, Sunday 12:00 PM - 6:00 PM, Monday 11:00 AM - 8:00 PM, Tuesday 11:00 AM - 8:00 PM, Wednesday 11:00 AM - 8:00 PM, Thursday 11:00 AM - 8:00 PM","<MISSING>","location_name:street_address"
"https://www.dillards.com/stores/texas/mall-del-norte-laredo/0726","Dillard's Mall Del Norte in Laredo, Texas","5300 San Dario Ave","Laredo","TX","78041","<MISSING>","0726","(956)727-1171","DepartmentStore","27.5541","-99.49731","dillards.com","Friday 11:00 AM - 8:00 PM, Saturday 11:00 AM - 8:00 PM, Sunday 12:00 PM - 7:00 PM, Monday 11:00 AM - 8:00 PM, Tuesday 11:00 AM - 8:00 PM, Wednesday 11:00 AM - 8:00 PM, Thursday 11:00 AM - 8:00 PM","<MISSING>","location_name:street_address"
"https://www.dillards.com/stores/texas/music-city-mall-lewisville-lewisville/0509","Dillard's Music City Mall Lewisville in Lewisville, Texas","2401 S Stemmons Fwy","Lewisville","TX","75067","<MISSING>","0509","(972)315-3333","DepartmentStore","33.00423","-96.97345","dillards.com","Friday 12:00 PM - 7:00 PM, Saturday 12:00 PM - 7:00 PM, Sunday 12:00 PM - 6:00 PM, Tuesday 12:00 PM - 7:00 PM, Wednesday 12:00 PM - 7:00 PM, Thursday 12:00 PM - 7:00 PM","<MISSING>","location_name:street_address"
"https://www.dillards.com/stores/texas/longview-mall-longview/0748","Dillard's Longview Mall in Longview, Texas","3500 McCann Rd","Longview","TX","75605","<MISSING>","0748","(903)758-4436","DepartmentStore","32.53825","-94.75073","dillards.com","Friday 11:00 AM - 8:00 PM, Saturday 11:00 AM - 8:00 PM, Sunday 12:00 PM - 6:00 PM, Monday 11:00 AM - 8:00 PM, Tuesday 11:00 AM - 8:00 PM, Wednesday 11:00 AM - 8:00 PM, Thursday 11:00 AM - 8:00 PM","<MISSING>","location_name:street_address"
"https://www.dillards.com/stores/texas/south-plains-mall-lubbock/0743","Dillard's South Plains Mall in Lubbock, Texas","6002 Slide Rd","Lubbock","TX","79414","<MISSING>","0743","(806)792-6871","DepartmentStore","33.54045","-101.9244","dillards.com","Friday 11:00 AM - 8:00 PM, Saturday 11:00 AM - 8:00 PM, Sunday 12:00 PM - 6:00 PM, Monday 11:00 AM - 8:00 PM, Tuesday 11:00 AM - 8:00 PM, Wednesday 11:00 AM - 8:00 PM, Thursday 11:00 AM - 8:00 PM","<MISSING>","location_name:street_address"
"https://www.dillards.com/stores/texas/la-plaza-mall-mcallen/0727","Dillard's La Plaza Mall in McAllen, Texas","2200 S 10th St","McAllen","TX","78501","<MISSING>","0727","(956)687-5211","DepartmentStore","26.18543","-98.23791","dillards.com","Friday 11:00 AM - 8:00 PM, Saturday 11:00 AM - 8:00 PM, Sunday 12:00 PM - 7:00 PM, Monday 11:00 AM - 8:00 PM, Tuesday 11:00 AM - 8:00 PM, Wednesday 11:00 AM - 8:00 PM, Thursday 11:00 AM - 8:00 PM","<MISSING>","location_name:street_address"
"https://www.dillards.com/stores/texas/town-east-mall-mesquite/0712","Dillard's Town East Mall in Mesquite, Texas","5000 Town East Mall","Mesquite","TX","75150","<MISSING>","0712","(972)681-9231","DepartmentStore","32.80588","-96.62451","dillards.com","Friday 11:00 AM - 8:00 PM, Saturday 11:00 AM - 8:00 PM, Sunday 12:00 PM - 6:00 PM, Monday 11:00 AM - 8:00 PM, Tuesday 11:00 AM - 8:00 PM, Wednesday 11:00 AM - 8:00 PM, Thursday 11:00 AM - 8:00 PM","<MISSING>","location_name:street_address"
"https://www.dillards.com/stores/texas/midland-park-mall-midland/0746","Dillard's Midland Park Mall in Midland, Texas","4511 N Midkiff Rd","Midland","TX","79705","<MISSING>","0746","(432)697-7911","DepartmentStore","32.02945","-102.1324","dillards.com","Friday 11:00 AM - 8:00 PM, Saturday 11:00 AM - 8:00 PM, Sunday 12:00 PM - 6:00 PM, Monday 11:00 AM - 8:00 PM, Tuesday 11:00 AM - 8:00 PM, Wednesday 11:00 AM - 8:00 PM, Thursday 11:00 AM - 8:00 PM","<MISSING>","location_name:street_address"
"https://www.dillards.com/stores/texas/music-city-mall-odessa/0747","Dillard's Music City Mall in Odessa, Texas","4101 E 42nd St Suite 108","Odessa","TX","79762","<MISSING>","0747","(432)362-1986","DepartmentStore","31.89398","-102.338","dillards.com","Friday 11:00 AM - 8:00 PM, Saturday 11:00 AM - 8:00 PM, Sunday 12:00 PM - 6:00 PM, Monday 11:00 AM - 8:00 PM, Tuesday 11:00 AM - 8:00 PM, Wednesday 11:00 AM - 8:00 PM, Thursday 11:00 AM - 8:00 PM","<MISSING>","location_name:street_address"
"https://www.dillards.com/stores/texas/pearland-town-center-pearland/0778","Dillard's Pearland Town Center in Pearland, Texas","11200 Broadway St Bldg 50","Pearland","TX","77584","<MISSING>","0778","(713)340-1334","DepartmentStore","29.5557","-95.3965","dillards.com","Friday 11:00 AM - 8:00 PM, Saturday 11:00 AM - 8:00 PM, Sunday 12:00 PM - 6:00 PM, Monday 11:00 AM - 8:00 PM, Tuesday 11:00 AM - 8:00 PM, Wednesday 11:00 AM - 8:00 PM, Thursday 11:00 AM - 8:00 PM","<MISSING>","location_name:street_address"
"https://www.dillards.com/stores/texas/the-shops-at-willow-bend-plano/0718","Dillard's The Shops At Willow Bend in Plano, Texas","2501 Dallas Pkwy","Plano","TX","75093","<MISSING>","0718","(972)202-4730","DepartmentStore","33.03328","-96.8308","dillards.com","Friday 11:00 AM - 8:00 PM, Saturday 11:00 AM - 8:00 PM, Sunday 12:00 PM - 6:00 PM, Monday 11:00 AM - 8:00 PM, Tuesday 11:00 AM - 8:00 PM, Wednesday 11:00 AM - 8:00 PM, Thursday 11:00 AM - 8:00 PM","<MISSING>","location_name:street_address"
"https://www.dillards.com/stores/texas/central-mall-port-arthur/0787","Dillard's Central Mall in Port Arthur, Texas","3100 FM 365","Port Arthur","TX","77642","<MISSING>","0787","(409)724-7575","DepartmentStore","29.95025","-93.98883","dillards.com","Friday 11:00 AM - 8:00 PM, Saturday 11:00 AM - 8:00 PM, Sunday 12:00 PM - 6:00 PM, Monday 11:00 AM - 8:00 PM, Tuesday 11:00 AM - 8:00 PM, Wednesday 11:00 AM - 8:00 PM, Thursday 11:00 AM - 8:00 PM","<MISSING>","location_name:street_address"
"https://www.dillards.com/stores/texas/sunset-mall-san-angelo/0745","Dillard's Sunset Mall in San Angelo, Texas","4001 Sunset Dr Suite 2000","San Angelo","TX","76904","<MISSING>","0745","(325)944-4571","DepartmentStore","31.42855","-100.4986","dillards.com","Friday 11:00 AM - 8:00 PM, Saturday 11:00 AM - 8:00 PM, Sunday 12:00 PM - 6:00 PM, Monday 11:00 AM - 8:00 PM, Tuesday 11:00 AM - 8:00 PM, Wednesday 11:00 AM - 8:00 PM, Thursday 11:00 AM - 8:00 PM","<MISSING>","location_name:street_address"
"https://www.dillards.com/stores/texas/north-star-mall-san-antonio/0720","Dillard's North Star Mall in San Antonio, Texas","7400 U.S. 281 Access Rd #900","San Antonio","TX","78216","<MISSING>","0720","(210)341-6666","DepartmentStore","29.51893","-98.49248","dillards.com","Friday 11:00 AM - 8:00 PM, Saturday 11:00 AM - 8:00 PM, Sunday 12:00 PM - 6:00 PM, Monday 11:00 AM - 8:00 PM, Tuesday 11:00 AM - 8:00 PM, Wednesday 11:00 AM - 8:00 PM, Thursday 11:00 AM - 8:00 PM","<MISSING>","location_name:street_address"
"https://www.dillards.com/stores/texas/the-shops-at-la-cantera-san-antonio/0721","Dillard's The Shops At La Cantera in San Antonio, Texas","15900 La Cantera Pkwy","San Antonio","TX","78256","<MISSING>","0721","(210)558-6121","DepartmentStore","29.59148","-98.61963","dillards.com","Friday 11:00 AM - 8:00 PM, Saturday 11:00 AM - 8:00 PM, Sunday 12:00 PM - 6:00 PM, Monday 11:00 AM - 8:00 PM, Tuesday 11:00 AM - 8:00 PM, Wednesday 11:00 AM - 8:00 PM, Thursday 11:00 AM - 8:00 PM","<MISSING>","location_name:street_address"
"https://www.dillards.com/stores/texas/rolling-oaks-mall-san-antonio/0722","Dillard's Rolling Oaks Mall in San Antonio, Texas","6909 N. FM 1604 East","San Antonio","TX","78247","<MISSING>","0722","(210)651-5033","DepartmentStore","29.59616","-98.34963","dillards.com","Friday 11:00 AM - 8:00 PM, Saturday 11:00 AM - 8:00 PM, Sunday 12:00 PM - 6:00 PM, Monday 11:00 AM - 8:00 PM, Tuesday 11:00 AM - 8:00 PM, Wednesday 11:00 AM - 8:00 PM, Thursday 11:00 AM - 8:00 PM","<MISSING>","location_name:street_address"
"https://www.dillards.com/stores/texas/ingram-park-mall-san-antonio/0723","Dillard's Ingram Park Mall in San Antonio, Texas","6301 Northwest Loop 410 Ste D","San Antonio","TX","78238","<MISSING>","0723","(210)681-7970","DepartmentStore","29.47043","-98.6202","dillards.com","Friday 11:00 AM - 8:00 PM, Saturday 11:00 AM - 8:00 PM, Sunday 12:00 PM - 6:00 PM, Monday 11:00 AM - 8:00 PM, Tuesday 11:00 AM - 8:00 PM, Wednesday 11:00 AM - 8:00 PM, Thursday 11:00 AM - 8:00 PM","<MISSING>","location_name:street_address"
"https://www.dillards.com/stores/texas/midway-mall-sherman/0713","Dillard's Midway Mall in Sherman, Texas","4800 Texoma Pkwy #400","Sherman","TX","75090","<MISSING>","0713","(903)868-1065","DepartmentStore","33.6888","-96.58321","dillards.com","Friday 11:00 AM - 8:00 PM, Saturday 11:00 AM - 8:00 PM, Sunday 12:00 PM - 6:00 PM, Monday 11:00 AM - 8:00 PM, Tuesday 11:00 AM - 8:00 PM, Wednesday 11:00 AM - 8:00 PM, Thursday 11:00 AM - 8:00 PM","<MISSING>","location_name:street_address"
"https://www.dillards.com/stores/texas/first-colony-mall-sugar-land/0777","Dillard's First Colony Mall in Sugar Land, Texas","16517 Southwest Fwy","Sugar Land","TX","77479","<MISSING>","0777","(281)980-8300","DepartmentStore","29.59186","-95.62263","dillards.com","Friday 11:00 AM - 8:00 PM, Saturday 11:00 AM - 8:00 PM, Sunday 12:00 PM - 6:00 PM, Monday 11:00 AM - 8:00 PM, Tuesday 11:00 AM - 8:00 PM, Wednesday 11:00 AM - 8:00 PM, Thursday 11:00 AM - 8:00 PM","<MISSING>","location_name:street_address"
"https://www.dillards.com/stores/texas/temple-mall-temple/0731","Dillard's Temple Mall in Temple, Texas","3111 S 31st St Ste 6501","Temple","TX","76502","<MISSING>","0731","(254)778-1854","DepartmentStore","31.0713","-97.36761","dillards.com","Friday 11:00 AM - 8:00 PM, Saturday 11:00 AM - 8:00 PM, Sunday 12:00 PM - 6:00 PM, Monday 11:00 AM - 8:00 PM, Tuesday 11:00 AM - 8:00 PM, Wednesday 11:00 AM - 8:00 PM, Thursday 11:00 AM - 8:00 PM","<MISSING>","location_name:street_address"
"https://www.dillards.com/stores/texas/central-mall-texarkana/0437","Dillard's Central Mall in Texarkana, Texas","2400 Richmond Rd","Texarkana","TX","75503","<MISSING>","0437","(903)838-6591","DepartmentStore","33.45631","-94.07275","dillards.com","Friday 11:00 AM - 8:00 PM, Saturday 11:00 AM - 8:00 PM, Sunday 12:00 PM - 6:00 PM, Monday 11:00 AM - 8:00 PM, Tuesday 11:00 AM - 8:00 PM, Wednesday 11:00 AM - 8:00 PM, Thursday 11:00 AM - 8:00 PM","<MISSING>","location_name:street_address"
"https://www.dillards.com/stores/texas/the-woodlands-mall-the-woodlands/0770","Dillard's The Woodlands Mall in The Woodlands, Texas","1201 Lake Woodlands Dr #400","The Woodlands","TX","77380","<MISSING>","0770","(281)363-9300","DepartmentStore","30.16436","-95.45245","dillards.com","Friday 11:00 AM - 8:00 PM, Saturday 11:00 AM - 8:00 PM, Sunday 12:00 PM - 6:00 PM, Monday 11:00 AM - 8:00 PM, Tuesday 11:00 AM - 8:00 PM, Wednesday 11:00 AM - 8:00 PM, Thursday 11:00 AM - 8:00 PM","<MISSING>","location_name:street_address"
"https://www.dillards.com/stores/texas/broadway-square-mall-tyler/0749","Dillard's Broadway Square Mall in Tyler, Texas","4601 S Broadway Ave","Tyler","TX","75703","<MISSING>","0749","(903)561-1221","DepartmentStore","32.29936","-95.30386","dillards.com","Friday 11:00 AM - 8:00 PM, Saturday 11:00 AM - 8:00 PM, Sunday 12:00 PM - 6:00 PM, Monday 11:00 AM - 8:00 PM, Tuesday 11:00 AM - 8:00 PM, Wednesday 11:00 AM - 8:00 PM, Thursday 11:00 AM - 8:00 PM","<MISSING>","location_name:street_address"
"https://www.dillards.com/stores/texas/victoria-mall-victoria/0737","Dillard's Victoria Mall in Victoria, Texas","7800 N Navarro St","Victoria","TX","77904","<MISSING>","0737","(361)576-5261","DepartmentStore","28.86925","-96.9926","dillards.com","Friday 11:00 AM - 8:00 PM, Saturday 11:00 AM - 8:00 PM, Sunday 12:00 PM - 6:00 PM, Monday 11:00 AM - 8:00 PM, Tuesday 11:00 AM - 8:00 PM, Wednesday 11:00 AM - 8:00 PM, Thursday 11:00 AM - 8:00 PM","<MISSING>","location_name:street_address"
"https://www.dillards.com/stores/texas/richland-mall-waco/0730","Dillard's Richland Mall in Waco, Texas","6001 W Waco Dr","Waco","TX","76710","<MISSING>","0730","(254)776-3560","DepartmentStore","31.51518","-97.18836","dillards.com","Friday 11:00 AM - 8:00 PM, Saturday 11:00 AM - 8:00 PM, Sunday 12:00 PM - 6:00 PM, Monday 11:00 AM - 8:00 PM, Tuesday 11:00 AM - 8:00 PM, Wednesday 11:00 AM - 8:00 PM, Thursday 11:00 AM - 8:00 PM","<MISSING>","location_name:street_address"
"https://www.dillards.com/stores/texas/sikes-senter-wichita-falls/0742","Dillard's Sikes Senter in Wichita Falls, Texas","3111 Midwestern Pkwy","Wichita Falls","TX","76308","<MISSING>","0742","(940)692-9310","DepartmentStore","33.86791","-98.53428","dillards.com","Friday 11:00 AM - 8:00 PM, Saturday 11:00 AM - 8:00 PM, Sunday 12:00 PM - 6:00 PM, Monday 11:00 AM - 8:00 PM, Tuesday 11:00 AM - 8:00 PM, Wednesday 11:00 AM - 8:00 PM, Thursday 11:00 AM - 8:00 PM","<MISSING>","location_name:street_address"
"https://www.dillards.com/stores/utah/layton-hills-mall-layton/0932","Dillard's Layton Hills Mall in Layton, Utah","1201 N Hill Field Rd #1000","Layton","UT","84041","<MISSING>","0932","(801)315-2138","DepartmentStore","41.07841","-111.97753","dillards.com","Friday 11:00 AM - 8:00 PM, Saturday 11:00 AM - 8:00 PM, Sunday 12:00 PM - 6:00 PM, Monday 11:00 AM - 8:00 PM, Tuesday 11:00 AM - 8:00 PM, Wednesday 11:00 AM - 8:00 PM, Thursday 11:00 AM - 8:00 PM","<MISSING>","location_name:street_address"
"https://www.dillards.com/stores/utah/fashion-place-murray/0930","Dillard's Fashion Place in Murray, Utah","6191 State St","Murray","UT","84107","<MISSING>","0930","(801)266-2006","DepartmentStore","40.637","-111.88425","dillards.com","Friday 11:00 AM - 8:00 PM, Saturday 11:00 AM - 8:00 PM, Sunday 12:00 PM - 6:00 PM, Monday 11:00 AM - 8:00 PM, Tuesday 11:00 AM - 8:00 PM, Wednesday 11:00 AM - 8:00 PM, Thursday 11:00 AM - 8:00 PM","<MISSING>","location_name:street_address"
"https://www.dillards.com/stores/utah/newgate-mall-ogden/0931","Dillard's Newgate Mall in Ogden, Utah","4000 Newgate Mall","Ogden","UT","84405","<MISSING>","0931","(801)392-0689","DepartmentStore","41.19606","-111.9807","dillards.com","Friday 11:00 AM - 8:00 PM, Saturday 11:00 AM - 8:00 PM, Sunday 12:00 PM - 6:00 PM, Monday 11:00 AM - 8:00 PM, Tuesday 11:00 AM - 8:00 PM, Wednesday 11:00 AM - 8:00 PM, Thursday 11:00 AM - 8:00 PM","<MISSING>","location_name:street_address"
"https://www.dillards.com/stores/utah/university-place-orem/0935","Dillard's University Place in Orem, Utah","543 E. University Parkway","Orem","UT","84097","<MISSING>","0935","(801)607-3144","DepartmentStore","40.29146","-111.69011","dillards.com","Friday 11:00 AM - 8:00 PM, Saturday 11:00 AM - 8:00 PM, Sunday 12:00 PM - 6:00 PM, Monday 11:00 AM - 8:00 PM, Tuesday 11:00 AM - 8:00 PM, Wednesday 11:00 AM - 8:00 PM, Thursday 11:00 AM - 8:00 PM","<MISSING>","location_name:street_address"
"https://www.dillards.com/stores/utah/provo-towne-centre-provo/0933","Dillard's Provo Towne Centre in Provo, Utah","1200 Towne Center Blvd","Provo","UT","84601","<MISSING>","0933","(801)852-3000","DepartmentStore","40.2156","-111.6623","dillards.com","Friday 11:00 AM - 8:00 PM, Saturday 11:00 AM - 8:00 PM, Sunday 12:00 PM - 6:00 PM, Monday 11:00 AM - 8:00 PM, Tuesday 11:00 AM - 8:00 PM, Wednesday 11:00 AM - 8:00 PM, Thursday 11:00 AM - 8:00 PM","<MISSING>","location_name:street_address"
"https://www.dillards.com/stores/utah/red-cliffs-mall-st-george/0928","Dillard's Red Cliffs Mall in St George, Utah","1850 Red Cliffs Dr","St George","UT","84790","<MISSING>","0928","(435)634-4900","DepartmentStore","37.19783","-113.90666","dillards.com","Friday 11:00 AM - 8:00 PM, Saturday 11:00 AM - 8:00 PM, Sunday 12:00 PM - 6:00 PM, Monday 11:00 AM - 8:00 PM, Tuesday 11:00 AM - 8:00 PM, Wednesday 11:00 AM - 8:00 PM, Thursday 11:00 AM - 8:00 PM","<MISSING>","location_name:street_address"
"https://www.dillards.com/stores/virginia/greenbrier-mall-chesapeake/0172","Dillard's Greenbrier Mall in Chesapeake, Virginia","1401 Greenbrier Pkwy","Chesapeake","VA","23320","<MISSING>","0172","(757)523-9031","DepartmentStore","36.77803","-76.22691","dillards.com","Friday 11:00 AM - 8:00 PM, Saturday 11:00 AM - 8:00 PM, Sunday 12:00 PM - 6:00 PM, Monday 11:00 AM - 8:00 PM, Tuesday 11:00 AM - 8:00 PM, Wednesday 11:00 AM - 8:00 PM, Thursday 11:00 AM - 8:00 PM","<MISSING>","location_name:street_address"
"https://www.dillards.com/stores/virginia/patrick-henry-mall-newport-news/0174","Dillard's Patrick Henry Mall in Newport News, Virginia","12300 Jefferson Ave Suite 300","Newport News","VA","23602","<MISSING>","0174","(757)930-0291","DepartmentStore","37.11228","-76.49725","dillards.com","Friday 11:00 AM - 8:00 PM, Saturday 11:00 AM - 8:00 PM, Sunday 12:00 PM - 6:00 PM, Monday 11:00 AM - 8:00 PM, Tuesday 11:00 AM - 8:00 PM, Wednesday 11:00 AM - 8:00 PM, Thursday 11:00 AM - 8:00 PM","<MISSING>","location_name:street_address"
"https://www.dillards.com/stores/virginia/macarthur-center-norfolk/0170","Dillard's Macarthur Center in Norfolk, Virginia","200 Monticelle Ave","Norfolk","VA","23510","<MISSING>","0170","(757)622-6800","DepartmentStore","36.84785","-76.29051","dillards.com","Friday 11:00 AM - 8:00 PM, Saturday 11:00 AM - 8:00 PM, Sunday 12:00 PM - 6:00 PM, Monday 11:00 AM - 8:00 PM, Tuesday 11:00 AM - 8:00 PM, Wednesday 11:00 AM - 8:00 PM, Thursday 11:00 AM - 8:00 PM","<MISSING>","location_name:street_address"
"https://www.dillards.com/stores/virginia/short-pump-town-center-richmond/0176","Dillard's Short Pump Town Center in Richmond, Virginia","11824 W Broad St","Richmond","VA","23233","<MISSING>","0176","(804)253-0182","DepartmentStore","37.65495","-77.61741","dillards.com","Friday 11:00 AM - 8:00 PM, Saturday 11:00 AM - 8:00 PM, Sunday 12:00 PM - 6:00 PM, Monday 11:00 AM - 8:00 PM, Tuesday 11:00 AM - 8:00 PM, Wednesday 11:00 AM - 8:00 PM, Thursday 11:00 AM - 8:00 PM","<MISSING>","location_name:street_address"
"https://www.dillards.com/stores/virginia/stony-point-fashion-park-richmond/0179","Dillard's Stony Point Fashion Park in Richmond, Virginia","9208 Stony Point Pkwy","Richmond","VA","23235","<MISSING>","0179","(804)253-1860","DepartmentStore","37.55223","-77.57306","dillards.com","Friday 11:00 AM - 8:00 PM, Saturday 11:00 AM - 8:00 PM, Sunday 12:00 PM - 6:00 PM, Monday 11:00 AM - 8:00 PM, Tuesday 11:00 AM - 8:00 PM, Wednesday 11:00 AM - 8:00 PM, Thursday 11:00 AM - 8:00 PM","<MISSING>","location_name:street_address"
"https://www.dillards.com/stores/virginia/lynnhaven-mall-virginia-beach/0171","Dillard's Lynnhaven Mall in Virginia Beach, Virginia","701 Lynnhaven Pkwy","Virginia Beach","VA","23452","<MISSING>","0171","(757)463-4800","DepartmentStore","36.81583","-76.07308","dillards.com","Friday 11:00 AM - 8:00 PM, Saturday 11:00 AM - 8:00 PM, Sunday 12:00 PM - 6:00 PM, Monday 11:00 AM - 8:00 PM, Tuesday 11:00 AM - 8:00 PM, Wednesday 11:00 AM - 8:00 PM, Thursday 11:00 AM - 8:00 PM","<MISSING>","location_name:street_address"
"https://www.dillards.com/stores/wyoming/frontier-mall-cheyenne/0999","Dillard's Frontier Mall in Cheyenne, Wyoming","1400 Dell Range Blvd","Cheyenne","WY","82009","<MISSING>","0999","(307)632-2224","DepartmentStore","41.16306","-104.8032","dillards.com","Friday 11:00 AM - 8:00 PM, Saturday 11:00 AM - 8:00 PM, Sunday 12:00 PM - 6:00 PM, Monday 11:00 AM - 8:00 PM, Tuesday 11:00 AM - 8:00 PM, Wednesday 11:00 AM - 8:00 PM, Thursday 11:00 AM - 8:00 PM","<MISSING>","location_name:street_address"
